{"type":"FeatureCollection","features":[{"type":"Feature","geometry":{"type":"Polygon","coordinates":[[[-121.584661,38.035988],[-121.584702,38.036186],[-121.584904,38.036486],[-121.585068,38.037135],[-121.585157,38.037768],[-121.585288,38.038847],[-121.585674,38.040197],[-121.585712,38.041104],[-121.585622,38.041682],[-121.585434,38.042288],[-121.58373,38.045099],[-121.583438,38.04649],[-121.583697,38.048902],[-121.583436,38.051047],[-121.583414,38.051817],[-121.58331,38.052495],[-121.583363,38.053478],[-121.583328,38.053715],[-121.583393,38.053949],[-121.58433,38.057611],[-121.584252,38.059143],[-121.58421,38.059356],[-121.584258,38.059528],[-121.584175,38.059806],[-121.583999,38.060755],[-121.583515,38.06167],[-121.583179,38.062188],[-121.583102,38.062486],[-121.583028,38.062681],[-121.583043,38.062745],[-121.583135,38.06278],[-121.58333,38.062722],[-121.583641,38.062715],[-121.584095,38.062531],[-121.584543,38.06255],[-121.585437,38.062653],[-121.586927,38.063117],[-121.58787,38.06321],[-121.589948,38.063425],[-121.59116,38.063395],[-121.591522,38.063312],[-121.591647,38.063171],[-121.59161,38.062994],[-121.591316,38.062592],[-121.590716,38.062723],[-121.589734,38.062909],[-121.589193,38.062932],[-121.588623,38.062708],[-121.588338,38.062522],[-121.587817,38.062329],[-121.586531,38.062047],[-121.586024,38.061857],[-121.585565,38.06159],[-121.585363,38.061025],[-121.585329,38.06064],[-121.585592,38.058204],[-121.58557,38.056954],[-121.584733,38.052923],[-121.585164,38.049306],[-121.584966,38.046414],[-121.585104,38.045755],[-121.586668,38.042983],[-121.587004,38.042214],[-121.58718,38.041575],[-121.586842,38.038304],[-121.586533,38.036147],[-121.586286,38.034932],[-121.586236,38.034009],[-121.586275,38.033865],[-121.586418,38.03377],[-121.586611,38.03375],[-121.586837,38.033834],[-121.587006,38.033725],[-121.586982,38.033089],[-121.587192,38.032645],[-121.587142,38.032085],[-121.587394,38.031751],[-121.587432,38.031554],[-121.587231,38.031398],[-121.585487,38.031175],[-121.58527,38.031261],[-121.585016,38.031268],[-121.584617,38.031311],[-121.584227,38.03134],[-121.583683,38.03129],[-121.582913,38.03124],[-121.582342,38.031304],[-121.582056,38.031436],[-121.581856,38.031679],[-121.581838,38.031886],[-121.581992,38.032172],[-121.582943,38.032959],[-121.583868,38.033891],[-121.58393,38.03409],[-121.583924,38.034456],[-121.584025,38.034808],[-121.584333,38.035383],[-121.584524,38.035632],[-121.584661,38.035988]]]},"properties":{"FID":0}}]}