{"bbox":[-121.58582587916257,38.02986832176404,-121.58339837571212,38.06366299128908],"type":"FeatureCollection","features":[{"type":"Feature","properties":{"FID":0},"geometry":{"type":"Polygon","coordinates":[[[-121.58427195139333,38.03101079952554],[-121.5842448298616,38.030984257857575],[-121.58421939438774,38.03095669991621],[-121.58419570624939,38.030928192089874],[-121.58417382251292,38.03089880305523],[-121.58415379589776,38.030868603612184],[-121.58413567465067,38.030837666512745],[-121.58411950242613,38.03080606628632],[-121.584105318185,38.030773879059744],[-121.58409315609917,38.03074118237413],[-121.58408304546634,38.030708054998065],[-121.58407501064607,38.0306745767378],[-121.58406907099352,38.030640828244906],[-121.58406524081788,38.030606890822156],[-121.5840635293476,38.03057284622758],[-121.58406394070414,38.030538776477535],[-121.58406647389663,38.030504763648935],[-121.58407112282377,38.03047088968198],[-121.58407787628532,38.03043723618214],[-121.58408671801098,38.030403884224015],[-121.58409762670082,38.03037091415587],[-121.58411057607466,38.03033840540608],[-121.58412553493575,38.03030643629177],[-121.58414246724823,38.03027508382998],[-121.58416133221954,38.03024442355249],[-121.58418208440301,38.03021452932347],[-121.58420467380476,38.030185473161666],[-121.58422904600393,38.030157325067],[-121.5842551422866,38.030130152851804],[-121.58428289978514,38.030104021977436],[-121.58431225162798,38.03007899539654],[-121.58434312710519,38.03005513340161],[-121.58437545183351,38.030032493479425],[-121.58440914794167,38.0300111301726],[-121.58444413425156,38.02999109494844],[-121.58448032647783,38.02997243607462],[-121.58451763743183,38.0299551985031],[-121.5845559772263,38.02993942376174],[-121.58459525349922,38.02992514985419],[-121.58463537162919,38.02991241116845],[-121.5846762349683,38.029901238393876],[-121.5847177450737,38.02989165844744],[-121.58475980194324,38.029883694408745],[-121.58480230425947,38.02987736546434],[-121.58484514962883,38.029872686861594],[-121.58488823483489,38.02986966987204],[-121.58493145608004,38.02986832176404],[-121.58497470924142,38.02986864578542],[-121.58501789011805,38.029870641155526],[-121.58506089468416,38.02987430306727],[-121.5851036193361,38.029879622698466],[-121.58514596114854,38.02988658723339],[-121.58518781811598,38.02989517989333],[-121.5852290893998,38.02990537997722],[-121.5852696755754,38.02991716291151],[-121.58530947886652,38.029930500309405],[-121.5853484033834,38.02994536003906],[-121.58538635535454,38.02996170630106],[-121.58542324334847,38.029979499715054],[-121.58545897850114,38.02999869741398],[-121.58549347472072,38.030019253147785],[-121.585526648905,38.03004111739485],[-121.58555842113351,38.030064237481156],[-121.58558871486353,38.03008855770723],[-121.58561745711684,38.03011401948224],[-121.58564457864857,38.03014056146551],[-121.58567001412243,38.0301681197139],[-121.58569370226078,38.03019662783611],[-121.58571558599725,38.03022601715238],[-121.58573561261238,38.03025621686034],[-121.5857537338595,38.03028715420533],[-121.58576990608404,38.030318754655625],[-121.58578409032515,38.03035094208216],[-121.58579625241097,38.030383638941956],[-121.58580636304292,38.030416766464725],[-121.58581439786408,38.030450244842875],[-121.58582033751665,38.030483993423516],[-121.58582416769138,38.030517930903194],[-121.58582587916257,38.0305519755233],[-121.58582546780603,38.03058604526721],[-121.58582293461262,38.03062005805806],[-121.58581828568549,38.03065393195605],[-121.58581153222485,38.030687585356404],[-121.58580269049916,38.030720937185286],[-121.58579178180932,38.03075390709591],[-121.5857788324355,38.0307864156613],[-121.5857638735735,38.030818384566146],[-121.58574694126195,38.03084973679541],[-121.58572807629064,38.03088039681956],[-121.58570732410713,38.0309102907769],[-121.58568473470538,38.030939346651145],[-121.58566036250622,38.03096749444532],[-121.58563426622355,38.03099466634993],[-121.58560650872504,38.031020796906596],[-121.58557715688217,38.031045823165734],[-121.58554628140499,38.03106968483795],[-121.58551395667664,38.03109232443967],[-121.58548026056847,38.031113687431116],[-121.58544527425862,38.031133722348244],[-121.58540908203234,38.03115238092627],[-121.58537177107834,38.03116961821609],[-121.58533343128295,38.03118539269254],[-121.58529415501096,38.03119966635453],[-121.58525403688098,38.031212404816486],[-121.58521317354187,38.031223577391025],[-121.58517166343644,38.03123315716327],[-121.58512960656691,38.03124112105526],[-121.5850871042507,38.031247449881846],[-121.58504425888131,38.03125212839678],[-121.58500117367525,38.031255145329474],[-121.5849579524301,38.03125649341188],[-121.58491469926875,38.03125616939665],[-121.5848715183921,38.03125417406428],[-121.58482851382598,38.03125051222151],[-121.58478578917315,38.031245192689866],[-121.5847434473616,38.0312382282841],[-121.58470159039416,38.03122963578176],[-121.58466031911034,38.03121943588227],[-121.58461973293477,38.03120765315739],[-121.58457992964362,38.03119431599201],[-121.58454100512584,38.03117945651578],[-121.58450305315563,38.03116311052543],[-121.5844661651608,38.031145317399],[-121.58443043000901,38.031126120000565],[-121.58439593378942,38.03110556457728],[-121.58436275960514,38.031083700647926],[-121.58433098737663,38.03106058088337],[-121.58430069364572,38.03103626098001],[-121.58427195139333,38.03101079952554]]]}},{"type":"Feature","properties":{"FID":1},"geometry":{"type":"Polygon","coordinates":[[[-121.58339837571212,38.062893293601675],[-121.58340061671592,38.0628564055413],[-121.58340515393034,38.062819648471695],[-121.58341197642471,38.0627831109442],[-121.58342106776257,38.0627468809812],[-121.58343240604297,38.06271104586445],[-121.58344596394994,38.0626756919245],[-121.58346170882253,38.062640904332774],[-121.58347960272847,38.06260676689665],[-121.58349960256037,38.06257336185702],[-121.58352166013789,38.06254076969074],[-121.58354572232037,38.06250906891622],[-121.58357173114219,38.06247833590471],[-121.58359962394404,38.06244864469586],[-121.58362933353108,38.062420066819804],[-121.58366078832911,38.06239267112448],[-121.58369391256075,38.06236652360989],[-121.58372862642867,38.062341687269],[-121.58376484630149,38.062318221936145],[-121.58380248492409,38.06229618414273],[-121.58384145162226,38.06227562698093],[-121.58388165251941,38.06225659997615],[-121.58392299077086,38.06223914896732],[-121.58396536678666,38.06222331599643],[-121.58400867848135,38.06220913920778],[-121.58405282151207,38.06219665275524],[-121.58409768953442,38.0621858867208],[-121.5841431744577,38.062176867041565],[-121.58418916670455,38.06216961544723],[-121.58423555547586,38.06216414940817],[-121.58428222901668,38.06216048209289],[-121.58432907488675,38.06215862233658],[-121.58437598023066,38.06215857461969],[-121.58442283204845,38.06216033905712],[-121.58446951747042,38.062163911398216],[-121.58451592402656,38.06216928303642],[-121.58456193992066,38.06217644103077],[-121.58460745429524,38.06218536813639],[-121.5846523575037,38.06219604284647],[-121.5846965413682,38.06220843944405],[-121.58473989944744,38.0622225280636],[-121.58478232728793,38.06223827476358],[-121.58482372267672,38.06225564160769],[-121.58486398588909,38.06227458675661],[-121.58490301992678,38.06229506456848],[-121.58494073075416,38.06231702570933],[-121.58497702752277,38.06234041727143],[-121.58501182278974,38.062365182901125],[-121.58504503273055,38.06239126293459],[-121.58507657733944,38.062418594541256],[-121.58510638062253,38.0624471118756],[-121.58513437078112,38.06247674623542],[-121.58516048038491,38.06250742622769],[-121.5851846465339,38.06253907794039],[-121.58520681100829,38.062571625120526],[-121.58522692041306,38.06260498935797],[-121.585244926303,38.06263909027425],[-121.58526078529938,38.062673845716375],[-121.58527445919681,38.062709171954474],[-121.585285915055,38.06274498388382],[-121.5852951252732,38.06278119522965],[-121.58530206766571,38.06281771875525],[-121.58530672550683,38.06285446647175],[-121.58530908757476,38.06289134985046],[-121.58530914817959,38.06292828003587],[-121.5853069071758,38.062965168059954],[-121.58530236996137,38.06300192505645],[-121.58529554746698,38.063038462474736],[-121.58528645612915,38.06307469229336],[-121.58527511784875,38.063110527232034],[-121.5852615599418,38.063145880961876],[-121.58524581507011,38.06318066831345],[-121.58522792116413,38.06321480548182],[-121.58520792133135,38.0632482102286],[-121.58518586375472,38.063280802079824],[-121.58516180157135,38.06331250251993],[-121.58513579275042,38.063343235181144],[-121.58510789994767,38.0633729260269],[-121.58507819036154,38.06340150353081],[-121.58504673556352,38.063428898848414],[-121.58501361133098,38.06345504598343],[-121.58497889746394,38.06347988194634],[-121.58494267759022,38.06350334690666],[-121.58490503896765,38.06352538433656],[-121.58486607227034,38.063545941147176],[-121.5848258713723,38.063564967816674],[-121.58478453312176,38.06358241850937],[-121.58474215710507,38.06359825118609],[-121.58469884541125,38.063612427705685],[-121.58465470238056,38.06362491391655],[-121.58460983435822,38.06363567973925],[-121.58456434943493,38.06364469923872],[-121.58451835718807,38.063651950686875],[-121.58447196841587,38.06365741661479],[-121.584425294875,38.063661083855045],[-121.58437844900496,38.06366294357316],[-121.58433154366195,38.06366299128908],[-121.58428469184416,38.0636612268878],[-121.58423800642221,38.06365765461989],[-121.58419159986516,38.06365228309088],[-121.58414558397195,38.063645125240974],[-121.58410006959649,38.063636198313446],[-121.58405516638894,38.06362552381341],[-121.58401098252351,38.06361312745598],[-121.58396762444428,38.06359903910411],[-121.58392519660381,38.063583292696975],[-121.58388380121504,38.06356592616798],[-121.58384353800355,38.0635469813535],[-121.58380450396494,38.063526503891914],[-121.5837667931376,38.06350454311414],[-121.58373049636896,38.06348115192421],[-121.58369570110199,38.06345638667216],[-121.58366249116209,38.0634303070184],[-121.5836309465532,38.06340297578965],[-121.58360114327007,38.06337445882785],[-121.5835731531106,38.06334482483161],[-121.58354704350681,38.06331414519038],[-121.5835228773587,38.063282493812956],[-121.58350071288343,38.063249946949036],[-121.58348060347866,38.063216583005676],[-121.5834625975896,38.063182482358535],[-121.58344673859325,38.06314772715809],[-121.58343306469493,38.063112401131725],[-121.58342160883764,38.0630765893822],[-121.58341239861853,38.06304037818249],[-121.58340545622602,38.06300385476803],[-121.58340079838493,38.06296710712663],[-121.58339843631695,38.06293022378611],[-121.58339837571212,38.062893293601675]]]}}]}