{"bbox":[-13534689.083700001,4558495.467699997,-13531535.2669,4589857.986400001],"type":"FeatureCollection","features":[{"type":"Feature","properties":{"PopupInfo":"","FolderPath":"Freshwater Pathway Project","Shape__Len":37476.6397057,"Name":"Line 4","SymbolID":0,"AltMode":0,"Base":0.0,"Clamped":-1,"Extruded":0,"Snippet":""},"geometry":{"type":"LineString","coordinates":[[-121.569942,38.07381],[-121.572288,38.072425],[-121.573647,38.071881],[-121.575825,38.071457],[-121.578219,38.070614],[-121.579225,38.069713],[-121.579703,38.068545],[-121.579742,38.067819],[-121.579616,38.067279],[-121.579402,38.066788],[-121.579276,38.066314],[-121.579179,38.065947],[-121.579198,38.06565],[-121.579273,38.065322],[-121.579584,38.06446],[-121.579922,38.063534],[-121.580359,38.062961],[-121.5808,38.062354],[-121.581311,38.061851],[-121.581771,38.061403],[-121.582212,38.060704],[-121.582478,38.060004],[-121.582606,38.059318],[-121.582645,38.05886],[-121.582607,38.058452],[-121.58254,38.05792],[-121.582038,38.055002],[-121.581636,38.053086],[-121.581713,38.050876],[-121.581845,38.049928],[-121.581889,38.049108],[-121.581796,38.04803],[-121.581648,38.047034],[-121.581539,38.046085],[-121.581654,38.045573],[-121.581947,38.04485],[-121.5829,38.043508],[-121.583607,38.042542],[-121.58407,38.041751],[-121.584181,38.041221],[-121.584177,38.040651],[-121.584047,38.039286],[-121.583835,38.037958],[-121.583577,38.036679],[-121.583307,38.035656],[-121.583068,38.035116],[-121.582489,38.033844],[-121.581393,38.032105],[-121.580653,38.031107],[-121.579887,38.02927],[-121.579523,38.027915],[-121.579477,38.027167],[-121.579709,38.026205],[-121.580442,38.024824],[-121.581254,38.022892],[-121.581351,38.022473],[-121.581371,38.021917],[-121.580932,38.021049],[-121.58038,38.020356],[-121.580225,38.019491],[-121.580278,38.018691],[-121.580249,38.018163],[-121.580157,38.017697],[-121.580202,38.017195],[-121.580354,38.016783],[-121.580454,38.016598],[-121.580617,38.016447],[-121.58081,38.016317],[-121.580989,38.016146],[-121.581139,38.015911],[-121.581145,38.015642],[-121.58104,38.014995],[-121.580391,38.010864],[-121.580136,38.010007],[-121.579979,38.00937],[-121.579815,38.008794],[-121.579551,38.007648],[-121.57915,38.006164],[-121.579055,38.005635],[-121.579124,38.005194],[-121.579203,38.004743],[-121.579367,38.004281],[-121.579582,38.003221],[-121.579582,38.000945],[-121.579599,37.999119],[-121.57969,37.997801],[-121.579756,37.997226],[-121.579785,37.996198],[-121.57975,37.995565],[-121.579709,37.995103],[-121.57969,37.994941],[-121.579729,37.994606],[-121.579881,37.994184],[-121.580491,37.992295],[-121.58095,37.990199],[-121.580986,37.989975],[-121.581017,37.989567],[-121.580991,37.987603],[-121.581011,37.985811],[-121.581173,37.983362],[-121.5812,37.983083],[-121.581202,37.982911],[-121.581139,37.982736],[-121.58102,37.982462],[-121.580782,37.982089],[-121.580394,37.981703],[-121.5797,37.981306],[-121.579019,37.981049],[-121.577502,37.980735],[-121.576428,37.980575],[-121.574624,37.980421],[-121.573962,37.980366],[-121.573372,37.980236],[-121.573008,37.980045],[-121.572489,37.979653],[-121.572203,37.979323],[-121.572035,37.979014],[-121.571976,37.978748],[-121.571985,37.978564],[-121.572028,37.978319],[-121.57226,37.977772],[-121.572622,37.977335],[-121.573128,37.976765],[-121.573807,37.975738],[-121.57415,37.974954],[-121.574185,37.97478],[-121.574185,37.974581],[-121.574058,37.973975],[-121.573929,37.973599],[-121.573784,37.973249],[-121.573123,37.972032],[-121.572836,37.970918],[-121.572858,37.970118],[-121.573299,37.968291],[-121.573454,37.967247],[-121.57323,37.965945],[-121.572265,37.964504],[-121.571633,37.963734],[-121.571299,37.963416],[-121.571025,37.963213],[-121.569988,37.962628],[-121.568574,37.961975],[-121.566953,37.961186],[-121.565643,37.960479],[-121.565104,37.960147],[-121.56481,37.959874],[-121.564603,37.959529],[-121.564488,37.959285],[-121.56431,37.958736],[-121.564025,37.957848],[-121.563835,37.957429],[-121.56343,37.955196],[-121.563049,37.954194],[-121.562717,37.953638],[-121.562391,37.953189],[-121.561865,37.952536],[-121.560117,37.950167],[-121.55882,37.94849],[-121.558293,37.947846],[-121.557841,37.947331],[-121.557572,37.946845],[-121.557487,37.946617],[-121.557481,37.946181],[-121.557747,37.945172],[-121.55814,37.944476],[-121.558571,37.943898],[-121.558756,37.943687],[-121.558966,37.943431],[-121.559561,37.942834],[-121.559825,37.942487],[-121.559941,37.94215],[-121.559965,37.941923],[-121.55993,37.941712],[-121.559926,37.941492],[-121.55997,37.941246],[-121.560145,37.940826],[-121.560691,37.940003],[-121.561509,37.938437],[-121.561836,37.937662],[-121.561933,37.937139],[-121.561943,37.936881],[-121.561899,37.936583],[-121.56184,37.936368],[-121.561694,37.936058],[-121.561409,37.935473],[-121.561008,37.934778],[-121.560621,37.934371],[-121.560224,37.934092],[-121.559283,37.933553],[-121.558451,37.933093],[-121.557926,37.932654],[-121.557382,37.931996],[-121.557258,37.931614],[-121.557187,37.931359],[-121.557199,37.931043],[-121.557239,37.930844],[-121.557344,37.930609],[-121.557762,37.930087],[-121.55817,37.929408],[-121.558546,37.928894],[-121.558866,37.928267],[-121.559074,37.927599],[-121.55912,37.926769],[-121.558518,37.925473],[-121.557574,37.924069],[-121.556442,37.923006],[-121.555876,37.92222],[-121.555849,37.921582],[-121.556308,37.921072],[-121.557197,37.920774],[-121.559111,37.920391],[-121.561375,37.919881],[-121.563612,37.919434],[-121.564555,37.919094],[-121.565067,37.918796],[-121.565442,37.918028],[-121.56558,37.917102],[-121.565442,37.916258],[-121.565183,37.915551],[-121.564545,37.914544],[-121.564182,37.91404],[-121.563353,37.913179],[-121.562773,37.912357],[-121.562611,37.911919],[-121.562505,37.911395],[-121.562589,37.910972],[-121.562726,37.910521],[-121.563282,37.90989],[-121.56394,37.909404],[-121.565347,37.908669],[-121.569321,37.906613],[-121.570252,37.906126],[-121.571016,37.905748],[-121.571805,37.905253],[-121.572172,37.904994],[-121.572352,37.904825],[-121.572508,37.904543],[-121.572561,37.90424],[-121.572573,37.904032],[-121.572528,37.903669],[-121.572413,37.903365],[-121.572056,37.902948],[-121.571413,37.902485],[-121.569983,37.901696],[-121.568669,37.900986],[-121.567654,37.900286],[-121.567054,37.899744],[-121.566725,37.899339],[-121.566418,37.898955],[-121.566151,37.898486],[-121.566059,37.898116],[-121.565966,37.897365],[-121.565998,37.896711],[-121.566134,37.896172],[-121.566392,37.895455],[-121.566736,37.894744],[-121.567011,37.894233],[-121.567266,37.893211],[-121.567317,37.892909],[-121.567379,37.892683],[-121.567481,37.892454],[-121.567636,37.892231],[-121.567817,37.892062],[-121.568031,37.891854],[-121.568395,37.8916],[-121.569022,37.891238],[-121.569604,37.890974],[-121.569985,37.890824],[-121.571338,37.890394],[-121.573354,37.889879],[-121.574294,37.889638],[-121.574791,37.88944],[-121.575227,37.889244],[-121.575588,37.88894],[-121.575848,37.888546],[-121.575974,37.888125],[-121.575993,37.887706],[-121.575934,37.887246],[-121.575773,37.886726],[-121.57554,37.886148],[-121.575283,37.885653],[-121.575066,37.885247],[-121.574511,37.884505],[-121.574133,37.883991],[-121.573986,37.883682],[-121.573956,37.88334],[-121.573962,37.883121],[-121.574054,37.882739],[-121.574142,37.882492],[-121.574389,37.882021],[-121.575112,37.881054],[-121.575665,37.880132],[-121.576243,37.879329],[-121.576908,37.878199],[-121.577649,37.876632],[-121.578378,37.875214],[-121.578918,37.873806],[-121.579471,37.87223],[-121.579672,37.871397],[-121.579709,37.87102],[-121.579643,37.870636],[-121.579629,37.870386],[-121.579606,37.870259],[-121.579533,37.870093],[-121.579428,37.869913],[-121.5791,37.869547],[-121.578402,37.869117],[-121.577354,37.868588],[-121.576264,37.868032],[-121.575146,37.867353],[-121.574455,37.866908],[-121.573851,37.866355],[-121.573538,37.865874],[-121.573257,37.865436],[-121.572799,37.864922],[-121.571821,37.863662],[-121.570577,37.86226],[-121.569264,37.861037],[-121.568128,37.860082],[-121.566269,37.858099],[-121.565628,37.857543],[-121.565051,37.85669],[-121.56389,37.855378],[-121.562458,37.853472],[-121.56197,37.852475],[-121.5616,37.851688]]}}]}