{"type":"FeatureCollection","features":[{"type":"Feature","properties":{},"geometry":{"type":"Polygon","coordinates":[[[-121.724488,38.04008],[-121.726693,38.038235],[-121.728623,38.03563],[-121.731585,38.030908],[-121.734273,38.025644],[-121.734962,38.022876],[-121.733378,38.020399],[-121.732921,38.018628],[-121.732782,38.016661],[-121.731996,38.015203],[-121.72811,38.013344],[-121.724965,38.011814],[-121.722513,38.008971],[-121.720663,38.008315],[-121.715653,38.005316],[-121.71162,38.003892],[-121.697246,38.005873],[-121.678186,37.999792],[-121.668331,37.996055],[-121.659052,37.990522],[-121.649456,37.984438],[-121.640833,37.975998],[-121.63744,37.975646],[-121.633601,37.975574],[-121.627935,37.975502],[-121.623228,37.975754],[-121.617934,37.975928],[-121.604363,37.964626],[-121.601941,37.963725],[-121.596043,37.963749],[-121.585149,37.963762],[-121.574047,37.963924],[-121.572584,37.963996],[-121.571122,37.964464],[-121.550965,37.966725],[-121.542739,37.967625],[-121.535336,37.96885],[-121.531471,37.96926],[-121.525598,37.970028],[-121.520482,37.971238],[-121.512808,37.971158],[-121.506873,37.971238],[-121.506361,37.972368],[-121.512398,37.975352],[-121.512153,37.979723],[-121.514263,37.981172],[-121.515897,37.983318],[-121.515693,37.985571],[-121.512766,37.986859],[-121.511172,37.990292],[-121.50555,37.99276],[-121.505763,37.998096],[-121.510193,38.002047],[-121.510125,38.003602],[-121.507675,38.009449],[-121.50804,38.010677],[-121.509531,38.011729],[-121.516058,38.0119],[-121.514027,38.021271],[-121.503529,38.025253],[-121.491946,38.02881],[-121.479772,38.023915],[-121.472355,38.025847],[-121.471219,38.026695],[-121.471039,38.028061],[-121.471642,38.029342],[-121.47083,38.031016],[-121.469394,38.032193],[-121.469155,38.033465],[-121.469514,38.034832],[-121.470805,38.035891],[-121.474,38.036857],[-121.47732,38.036542],[-121.479024,38.038009],[-121.480015,38.039292],[-121.480637,38.039555],[-121.481537,38.039598],[-121.482776,38.039292],[-121.484848,38.038384],[-121.487069,38.038238],[-121.488423,38.038328],[-121.489025,38.040364],[-121.489945,38.04187],[-121.491396,38.042929],[-121.493059,38.043486],[-121.495183,38.043598],[-121.497762,38.043427],[-121.498328,38.043678],[-121.498859,38.045573],[-121.498467,38.046806],[-121.496733,38.049676],[-121.496945,38.051328],[-121.497441,38.052798],[-121.499036,38.053544],[-121.499304,38.053933],[-121.500086,38.054111],[-121.500842,38.054171],[-121.50122,38.054012],[-121.504072,38.053621],[-121.507078,38.053313],[-121.508672,38.053807],[-121.509822,38.054198],[-121.510794,38.053917],[-121.512258,38.054391],[-121.513382,38.055049],[-121.514663,38.055358],[-121.515813,38.055317],[-121.517407,38.054926],[-121.530502,38.056505],[-121.529344,38.06011],[-121.529169,38.062962],[-121.53074,38.067497],[-121.532268,38.068562],[-121.534144,38.069318],[-121.536276,38.06932],[-121.537978,38.068667],[-121.544,38.065025],[-121.547273,38.063136],[-121.553863,38.060731],[-121.554997,38.060937],[-121.555041,38.06159],[-121.553906,38.063376],[-121.552379,38.064476],[-121.551812,38.065713],[-121.551768,38.067121],[-121.552466,38.069663],[-121.554823,38.071965],[-121.555155,38.072736],[-121.559999,38.074694],[-121.564755,38.077546],[-121.56925,38.080397],[-121.569639,38.083358],[-121.569464,38.086071],[-121.569315,38.088577],[-121.569377,38.09009],[-121.569788,38.091062],[-121.570352,38.091839],[-121.571176,38.092247],[-121.571529,38.092821],[-121.571105,38.093469],[-121.57087,38.094136],[-121.569882,38.09484],[-121.568258,38.095173],[-121.566587,38.095488],[-121.565113,38.096459],[-121.562501,38.0982],[-121.560571,38.099904],[-121.560195,38.101163],[-121.560971,38.102682],[-121.564736,38.105215],[-121.566949,38.107141],[-121.568383,38.107759],[-121.569139,38.107928],[-121.569981,38.107738],[-121.571148,38.107256],[-121.571593,38.106508],[-121.571569,38.106073],[-121.570212,38.105264],[-121.569489,38.105207],[-121.568296,38.103867],[-121.56703,38.104067],[-121.566018,38.103099],[-121.565439,38.101935],[-121.564861,38.100795],[-121.564897,38.099657],[-121.565765,38.098433],[-121.56679,38.097377],[-121.567635,38.097074],[-121.568455,38.096964],[-121.569922,38.096868],[-121.570168,38.09712],[-121.570207,38.097999],[-121.571208,38.098696],[-121.572364,38.099848],[-121.57506,38.101121],[-121.57981,38.10221],[-121.584105,38.102846],[-121.584625,38.102755],[-121.584991,38.102952],[-121.587679,38.103206],[-121.591435,38.103327],[-121.592067,38.103554],[-121.592394,38.103979],[-121.594031,38.105161],[-121.595187,38.105676],[-121.596458,38.10607],[-121.598192,38.107177],[-121.599694,38.107707],[-121.601389,38.108162],[-121.604683,38.10895],[-121.610061,38.108285],[-121.611699,38.107951],[-121.612951,38.107875],[-121.614329,38.112597],[-121.614332,38.11328],[-121.614491,38.113882],[-121.614913,38.114256],[-121.615437,38.114611],[-121.618977,38.116395],[-121.62027,38.116872],[-121.621612,38.117268],[-121.623504,38.117211],[-121.625615,38.117232],[-121.628438,38.117813],[-121.628784,38.117746],[-121.629044,38.117282],[-121.629495,38.1169],[-121.63227,38.117337],[-121.634767,38.11791],[-121.639068,38.118224],[-121.643317,38.118674],[-121.648612,38.118882],[-121.649819,38.118522],[-121.650632,38.117513],[-121.650879,38.117311],[-121.651188,38.11726],[-121.652964,38.11795],[-121.654419,38.118741],[-121.656622,38.119196],[-121.658908,38.120092],[-121.660128,38.120429],[-121.661197,38.12016],[-121.661682,38.120188],[-121.663456,38.122232],[-121.664595,38.123195],[-121.665219,38.123872],[-121.665619,38.124076],[-121.666343,38.124064],[-121.667823,38.12384],[-121.669644,38.123739],[-121.670441,38.124097],[-121.671366,38.124433],[-121.672317,38.124547],[-121.673073,38.124529],[-121.676987,38.124081],[-121.680473,38.123835],[-121.681299,38.123678],[-121.682224,38.123421],[-121.682736,38.123029],[-121.683391,38.122402],[-121.683619,38.121084],[-121.683697,38.120196],[-121.683856,38.119419],[-121.683776,38.118543],[-121.683855,38.117407],[-121.683487,38.116918],[-121.683744,38.116584],[-121.683832,38.116126],[-121.684766,38.116126],[-121.68498,38.115938],[-121.687321,38.115492],[-121.689053,38.114629],[-121.690609,38.11356],[-121.691228,38.112947],[-121.691756,38.112485],[-121.692768,38.111339],[-121.693695,38.110007],[-121.694451,38.108596],[-121.695207,38.10661],[-121.695794,38.105752],[-121.696921,38.105666],[-121.697921,38.105818],[-121.699357,38.1064],[-121.699675,38.106549],[-121.699979,38.106725],[-121.700306,38.106725],[-121.700524,38.106544],[-121.70096,38.105969],[-121.701318,38.105374],[-121.70119,38.105143],[-121.698797,38.104251],[-121.697427,38.10404],[-121.696578,38.104055],[-121.695309,38.104286],[-121.693798,38.105469],[-121.691889,38.109047],[-121.689299,38.112274],[-121.686907,38.113632],[-121.685612,38.114142],[-121.684304,38.114357],[-121.683878,38.113794],[-121.684502,38.109362],[-121.686079,38.104407],[-121.686983,38.100102],[-121.686886,38.093193],[-121.686695,38.086735],[-121.685541,38.082502],[-121.684591,38.080466],[-121.683288,38.075868],[-121.683648,38.07471],[-121.683708,38.07341],[-121.683408,38.071495],[-121.682987,38.070596],[-121.683017,38.069556],[-121.682374,38.067118],[-121.683295,38.064682],[-121.685094,38.062112],[-121.689507,38.058441],[-121.69427,38.055085],[-121.696476,38.052637],[-121.699685,38.050702],[-121.701289,38.049913],[-121.703914,38.049624],[-121.708472,38.047019],[-121.714025,38.044837],[-121.718487,38.043376],[-121.722599,38.041362],[-121.724488,38.04008]]]}}]}