{
"type": "FeatureCollection",
"name": "delta_tunnel_sites",
"crs": { "type": "name", "properties": { "name": "urn:ogc:def:crs:OGC:1.3:CRS84" } },
"features": [
{"type":"Feature","properties":{"OBJECTID":1.0,"title":"Maintenance Shaft"},"geometry":{"type":"MultiPolygon","coordinates":[[[[-121.450767272256783,38.233343883513072],[-121.450777068384951,38.233197062800237],[-121.450806348073328,38.233051849914233],[-121.450854791521635,38.232909836055931],[-121.450921867825599,38.232772577862541],[-121.451006842163252,38.232641579059923],[-121.451108782981706,38.232518274231509],[-121.451226573675029,38.232404014703562],[-121.451358923364154,38.232300053019024],[-121.451504383066535,38.23220752741112],[-121.451661358272545,38.232127451921926],[-121.451828128708399,38.232060704404134],[-121.452183662134928,38.231969962342525],[-121.452368528233876,38.231946962095151],[-121.452555443389983,38.231939267824544],[-121.452742357647779,38.231946962095151],[-121.452927224645038,38.231969962342525],[-121.453108018680823,38.232008015228523],[-121.453282758071566,38.232060704404134],[-121.453449528507434,38.232127451921926],[-121.453606503713445,38.23220752741112],[-121.453751963415812,38.232300053019024],[-121.453884313104936,38.232404014703562],[-121.454002103798274,38.232518274231509],[-121.454104044616713,38.232641579059923],[-121.454189018954381,38.232772577862541],[-121.454256094359991,38.232909836055931],[-121.454304537808341,38.233051849914233],[-121.454333818395028,38.233197062800237],[-121.454343613624872,38.233343883513072],[-121.454333818395028,38.233490704635102],[-121.454304537808341,38.233635916644815],[-121.454256094359991,38.23377792837961],[-121.454189018954381,38.233915184675503],[-121.454104044616713,38.234046181183928],[-121.454002103798274,38.234169483421738],[-121.453884313104936,38.234283740175883],[-121.453751963415812,38.234387699024659],[-121.453606503713445,38.234480221858767],[-121.453449528507434,38.234560294757351],[-121.453282758071566,38.234627040686583],[-121.453108018680823,38.234679727964689],[-121.452927224645038,38.234717779432827],[-121.452742357647779,38.234740778098264],[-121.452555443389983,38.23474847277808],[-121.452368528233876,38.234740778098264],[-121.452183662134928,38.234717779432827],[-121.452002868099143,38.234679727964689],[-121.451828128708399,38.234627040686583],[-121.451661358272545,38.234560294757351],[-121.451504383066535,38.234480221858767],[-121.451358923364154,38.234387699024659],[-121.451226573675029,38.234283740175883],[-121.451108782981706,38.234169483421738],[-121.451006842163252,38.234046181183928],[-121.450921867825599,38.233915184675503],[-121.450854791521635,38.23377792837961],[-121.450806348073328,38.233635916644815],[-121.450777068384951,38.233490704635102],[-121.450767272256783,38.233343883513072]]]]}},
{"type":"Feature","properties":{"OBJECTID":2.0,"title":"Maintenance Shaft"},"geometry":{"type":"MultiPolygon","coordinates":[[[[-121.432227844118074,38.060004005719378],[-121.432237639347917,38.059856835722243],[-121.432266919934605,38.059711277378035],[-121.432315363382926,38.059568926380351],[-121.43238243968689,38.05943134165485],[-121.432467413126261,38.05930003050463],[-121.432569353944672,38.059176432340358],[-121.43268714463801,38.05906190170289],[-121.432819495225417,38.058957691992781],[-121.432964954029501,38.058864946272799],[-121.433121929235512,38.058784680289889],[-121.43328869967138,38.058717773984895],[-121.43364423309788,38.058626816055281],[-121.433829100095167,38.058603761092257],[-121.434016014352963,38.058596048517643],[-121.43420292950907,38.058603761092257],[-121.434387796506329,38.058626816055281],[-121.434568589643774,38.058664959465965],[-121.434743329034546,38.058717773984895],[-121.434910100368711,38.058784680289889],[-121.435067074676411,38.058864946272799],[-121.435212534378806,38.058957691992781],[-121.435344884067916,38.05906190170289],[-121.43546267476124,38.059176432340358],[-121.435564615579665,38.05930003050463],[-121.435649589917347,38.05943134165485],[-121.43571666622131,38.059568926380351],[-121.435765109669617,38.059711277378035],[-121.435794389357994,38.059856835722243],[-121.435804185486163,38.060004005719378],[-121.435794389357994,38.060151176127825],[-121.435765109669617,38.060296733597028],[-121.43571666622131,38.060439083178942],[-121.435649589917347,38.060576666009723],[-121.435564615579665,38.060707974869139],[-121.43546267476124,38.060831569739335],[-121.435344884067916,38.060946098314396],[-121.435212534378806,38.061050304485612],[-121.435067074676411,38.061143047435877],[-121.434910100368711,38.061223310832005],[-121.434743329034546,38.061290215553512],[-121.434568589643774,38.061343028177731],[-121.434387796506329,38.061381170172631],[-121.43420292950907,38.061404223553332],[-121.434016014352963,38.061411936539272],[-121.433829100095167,38.061404223553332],[-121.43364423309788,38.061381170172631],[-121.433463439062152,38.061343028177731],[-121.43328869967138,38.061290215553512],[-121.433121929235512,38.061223310832005],[-121.432964954029501,38.061143047435877],[-121.432819495225417,38.061050304485612],[-121.43268714463801,38.060946098314396],[-121.432569353944672,38.060831569739335],[-121.432467413126261,38.060707974869139],[-121.43238243968689,38.060576666009723],[-121.432315363382926,38.060439083178942],[-121.432266919934605,38.060296733597028],[-121.432237639347917,38.060151176127825],[-121.432227844118074,38.060004005719378]]]]}},
{"type":"Feature","properties":{"OBJECTID":3.0,"title":"Maintenance Shaft"},"geometry":{"type":"MultiPolygon","coordinates":[[[[-121.486472838925081,37.922281560031351],[-121.48648263505325,37.92213411348007],[-121.486511914741612,37.921988281611142],[-121.486560358189934,37.921845663116649],[-121.486627434493897,37.92170781985164],[-121.486712408831579,37.921576261951508],[-121.486814349650004,37.921452431531641],[-121.486932140343328,37.921337685678111],[-121.487064490032424,37.921233280146609],[-121.487209949734833,37.92114036014771],[-121.487366924042519,37.921059943336893],[-121.487533695376698,37.920992911308396],[-121.487889227904915,37.920901782460227],[-121.488074094902174,37.920878684883448],[-121.488261010058281,37.920870957107553],[-121.488447924316077,37.920878684883448],[-121.488632791313336,37.920901782460227],[-121.48881358445081,37.920939997545943],[-121.488988323841554,37.920992911308396],[-121.489155095175718,37.921059943336893],[-121.489312070381729,37.92114036014771],[-121.489457529185813,37.921233280146609],[-121.489589879773234,37.921337685678111],[-121.489707670466558,37.921452431531641],[-121.489809611284983,37.921576261951508],[-121.489894584724354,37.92170781985164],[-121.489961661028318,37.921845663116649],[-121.490010104476625,37.921988281611142],[-121.490039385063326,37.92213411348007],[-121.49004918029317,37.922281560031351],[-121.490039385063326,37.922429006995628],[-121.490010104476625,37.922574837990595],[-121.489961661028318,37.922717455070995],[-121.489894584724354,37.922855296443572],[-121.489809611284983,37.922986852055644],[-121.489707670466558,37.923110679183203],[-121.489589879773234,37.923225422978987],[-121.489457529185813,37.923329824973663],[-121.489312070381729,37.923422742206178],[-121.489155095175718,37.923503156433306],[-121.488988323841554,37.923570186882387],[-121.48881358445081,37.923623098752401],[-121.488632791313336,37.923661312424031],[-121.488447924316077,37.923684409126864],[-121.488261010058281,37.923692136607123],[-121.488074094902174,37.923684409126864],[-121.487889227904915,37.923661312424031],[-121.48770843476747,37.923623098752401],[-121.487533695376698,37.923570186882387],[-121.487366924042519,37.923503156433306],[-121.487209949734833,37.923422742206178],[-121.487064490032424,37.923329824973663],[-121.486932140343328,37.923225422978987],[-121.486814349650004,37.923110679183203],[-121.486712408831579,37.922986852055644],[-121.486627434493897,37.922855296443572],[-121.486560358189934,37.922717455070995],[-121.486511914741612,37.922574837990595],[-121.48648263505325,37.922429006995628],[-121.486472838925081,37.922281560031351]]]]}},
{"type":"Feature","properties":{"OBJECTID":4.0,"title":"Maintenance Shaft"},"geometry":{"type":"MultiPolygon","coordinates":[[[[-121.522178405593351,37.867553861134894],[-121.522188200823223,37.867406304214697],[-121.522217481409911,37.867260363887262],[-121.522265924858246,37.867117639324455],[-121.522333001162181,37.866979693542902],[-121.522417974601538,37.86684803851022],[-121.522519915419977,37.86672411599595],[-121.522637706113315,37.866609284095397],[-121.52277005670075,37.866504801625624],[-121.522915515504806,37.866411812521349],[-121.523072490710817,37.866331335903993],[-121.523239262044996,37.866264253314228],[-121.523594794573199,37.866173056693128],[-121.523779661570472,37.866149941938602],[-121.523966575828254,37.866142208415532],[-121.524153490984375,37.866149941938602],[-121.524338357981634,37.866173056693128],[-121.524519151119094,37.866211300199559],[-121.524693890509852,37.866264253314228],[-121.524860661844016,37.866331335903993],[-121.525017636151716,37.866411812521349],[-121.525163095854083,37.866504801625624],[-121.525295445543208,37.866609284095397],[-121.525413236236545,37.86672411599595],[-121.525515177054984,37.86684803851022],[-121.525600151392652,37.866979693542902],[-121.525667227696587,37.867117639324455],[-121.525715671144923,37.867260363887262],[-121.5257449508333,37.867406304214697],[-121.525754746961482,37.867553861134894],[-121.5257449508333,37.867701417050434],[-121.525715671144923,37.867847356504342],[-121.525667227696587,37.867990080362887],[-121.525600151392652,37.868128024252925],[-121.525515177054984,37.868259676998669],[-121.525413236236545,37.868383596930499],[-121.525295445543208,37.868498425356847],[-121.525163095854083,37.868602905708968],[-121.525017636151716,37.868695892048187],[-121.524860661844016,37.868776366083111],[-121.524693890509852,37.868843445676788],[-121.524519151119094,37.868896396899935],[-121.524338357981634,37.868934638992947],[-121.524153490984375,37.868957753583096],[-121.523966575828254,37.86896548610153],[-121.523779661570472,37.868957753583096],[-121.523594794573199,37.868934638992947],[-121.523414001435739,37.868896396899935],[-121.523239262044996,37.868843445676788],[-121.523072490710817,37.868776366083111],[-121.522915515504806,37.868695892048187],[-121.52277005670075,37.868602905708968],[-121.522637706113315,37.868498425356847],[-121.522519915419977,37.868383596930499],[-121.522417974601538,37.868259676998669],[-121.522333001162181,37.868128024252925],[-121.522265924858246,37.867990080362887],[-121.522217481409911,37.867847356504342],[-121.522188200823223,37.867701417050434],[-121.522178405593351,37.867553861134894]]]]}},
{"type":"Feature","properties":{"OBJECTID":5.0,"title":"Launch Shaft"},"geometry":{"type":"MultiPolygon","coordinates":[[[[-121.453342193305701,38.297768585256158],[-121.45335198943387,38.297621893998482],[-121.453381269122261,38.297476810551807],[-121.453429712570582,38.297334922591446],[-121.453496788874546,38.297197786079636],[-121.453581762313888,38.297066903409217],[-121.453683703132327,38.296943707891877],[-121.453801493825637,38.296829549655968],[-121.453933844413072,38.296725680134131],[-121.454079303217156,38.296633236550583],[-121.454236278423139,38.296553232048545],[-121.454403049757346,38.296486542997499],[-121.454758582285535,38.2963958813787],[-121.454943449282823,38.296372902226025],[-121.455130363540619,38.296365214071372],[-121.455317278696725,38.296372902226025],[-121.455502145693956,38.2963958813787],[-121.45568293883143,38.296433901235865],[-121.455857678222173,38.296486542997499],[-121.456024449556352,38.296553232048545],[-121.456181424762377,38.296633236550583],[-121.456326883566433,38.296725680134131],[-121.456459234153883,38.296829549655968],[-121.456577024847178,38.296943707891877],[-121.45667896476732,38.297066903409217],[-121.456763939104974,38.297197786079636],[-121.456831015408937,38.297334922591446],[-121.456879458857273,38.297476810551807],[-121.456908738545621,38.297621893998482],[-121.456918534673818,38.297768585256158],[-121.456908738545621,38.29791527551226],[-121.456879458857273,38.298060358787154],[-121.456831015408937,38.298202245328866],[-121.456763939104974,38.298339379942163],[-121.45667896476732,38.29847026031716],[-121.456577024847178,38.298593453242503],[-121.456459234153883,38.298707608703118],[-121.456326883566433,38.298811475387659],[-121.456181424762377,38.298903916195911],[-121.456024449556352,38.298983918105954],[-121.455857678222173,38.29905060486157],[-121.45568293883143,38.299103244724698],[-121.455502145693956,38.299141262458214],[-121.455317278696725,38.299164241439101],[-121.455130363540619,38.299171928592187],[-121.454943449282823,38.299164241439101],[-121.454758582285535,38.299141262458214],[-121.45457778914809,38.299103244724698],[-121.454403049757346,38.29905060486157],[-121.454236278423139,38.298983918105954],[-121.454079303217156,38.298903916195911],[-121.453933844413072,38.298811475387659],[-121.453801493825637,38.298707608703118],[-121.453683703132327,38.298593453242503],[-121.453581762313888,38.29847026031716],[-121.453496788874546,38.298339379942163],[-121.453429712570582,38.298202245328866],[-121.453381269122261,38.298060358787154],[-121.45335198943387,38.29791527551226],[-121.453342193305701,38.297768585256158]]]]}},
{"type":"Feature","properties":{"OBJECTID":6.0,"title":"Launch Shaft"},"geometry":{"type":"MultiPolygon","coordinates":[[[[-121.429180854794069,37.9815690764433],[-121.429190650023941,37.981421748840226],[-121.4292199306106,37.981276034616535],[-121.429268374058935,37.981133531174606],[-121.429335450362871,37.980995799109579],[-121.429420423802242,37.980864347338603],[-121.429522364620667,37.980740616813769],[-121.42964015531399,37.980625963526435],[-121.429772505003129,37.98052164221933],[-121.429917964705496,37.980428797179222],[-121.430074939911506,37.980348445240722],[-121.430241710347389,37.980281467286929],[-121.430597243773889,37.980190411952236],[-121.430782110771148,37.980167332300127],[-121.430969025028944,37.980159611466284],[-121.431155940185064,37.980167332300127],[-121.431340807182352,37.980190411952236],[-121.431521600319783,37.980228596209933],[-121.431696339710541,37.980281467286929],[-121.431863110146423,37.980348445240722],[-121.432020085352406,37.980428797179222],[-121.432165545054801,37.98052164221933],[-121.432297894743925,37.980625963526435],[-121.432415685437235,37.980740616813769],[-121.432517626255674,37.980864347338603],[-121.432602600593341,37.980995799109579],[-121.432669676897305,37.981133531174606],[-121.432718120345612,37.981276034616535],[-121.432747400033989,37.981421748840226],[-121.432757196162143,37.9815690764433],[-121.432747400033989,37.981716404458638],[-121.432718120345612,37.981862117807928],[-121.432669676897305,37.982004619835024],[-121.432602600593341,37.982142350006654],[-121.432517626255674,37.982273799488375],[-121.432415685437235,37.982397526720128],[-121.432297894743925,37.982512177947697],[-121.432165545054801,37.982616495717082],[-121.432020085352406,37.982709337989363],[-121.431863110146423,37.982789687342844],[-121.431696339710541,37.982856663715452],[-121.431521600319783,37.982909532899036],[-121.431340807182352,37.982947715741908],[-121.431155940185064,37.982970793811532],[-121.430969025028944,37.982978515057667],[-121.430782110771148,37.982970793811532],[-121.430597243773889,37.982947715741908],[-121.430416449738132,37.982909532899036],[-121.430241710347389,37.982856663715452],[-121.430074939911506,37.982789687342844],[-121.429917964705496,37.982709337989363],[-121.429772505003129,37.982616495717082],[-121.42964015531399,37.982512177947697],[-121.429522364620667,37.982397526720128],[-121.429420423802242,37.982273799488375],[-121.429335450362871,37.982142350006654],[-121.429268374058935,37.982004619835024],[-121.4292199306106,37.981862117807928],[-121.429190650023941,37.981716404458638],[-121.429180854794069,37.9815690764433]]]]}},
{"type":"Feature","properties":{"OBJECTID":7.0,"title":"Reception Shaft"},"geometry":{"type":"MultiPolygon","coordinates":[[[[-121.575178855541125,37.804512467925605],[-121.575188651669322,37.804364785563251],[-121.57521793135767,37.80421872046638],[-121.575266374806006,37.804075873883825],[-121.575333451109969,37.803937810168414],[-121.575418425447623,37.80380604187058],[-121.575520365367765,37.803682013411979],[-121.575638156061061,37.803567084048915],[-121.57577050664851,37.803462511545256],[-121.575915966350877,37.803369442942945],[-121.576072940658605,37.803288897524837],[-121.57623971199277,37.803221758294946],[-121.576595244520988,37.803130483708664],[-121.576780111518218,37.803107349193056],[-121.576967026674325,37.803099609058513],[-121.577153940932121,37.803107349193056],[-121.577338807929408,37.803130483708664],[-121.577519601066854,37.803168759909958],[-121.577694340457626,37.803221758294946],[-121.577861111791805,37.803288897524837],[-121.578018086997787,37.803369442942945],[-121.578163545801871,37.803462511545256],[-121.578295896389307,37.803567084048915],[-121.578413687082616,37.803682013411979],[-121.578515627901055,37.80380604187058],[-121.578600601340412,37.803937810168414],[-121.578667677644361,37.804075873883825],[-121.578716121092683,37.80421872046638],[-121.578745400781074,37.804364785563251],[-121.578755196909242,37.804512467925605],[-121.578745400781074,37.804660150702396],[-121.578716121092683,37.804806214926231],[-121.578667677644361,37.80494906009617],[-121.578600601340412,37.805087121921133],[-121.578515627901055,37.8052188879333],[-121.578413687082616,37.805342913101157],[-121.578295896389307,37.80545784041049],[-121.578163545801871,37.805562409379149],[-121.578018086997787,37.805655475217968],[-121.577861111791805,37.8057360180551],[-121.577694340457626,37.805803155709086],[-121.577519601066854,37.805856152203624],[-121.577338807929408,37.805894426992289],[-121.577153940932121,37.805917560634867],[-121.576967026674325,37.805925300474087],[-121.576780111518218,37.805917560634867],[-121.576595244520988,37.805894426992289],[-121.576414451383513,37.805856152203624],[-121.57623971199277,37.805803155709086],[-121.576072940658605,37.8057360180551],[-121.575915966350877,37.805655475217968],[-121.57577050664851,37.805562409379149],[-121.575638156061061,37.80545784041049],[-121.575520365367765,37.805342913101157],[-121.575418425447623,37.8052188879333],[-121.575333451109969,37.805087121921133],[-121.575266374806006,37.80494906009617],[-121.57521793135767,37.804806214926231],[-121.575188651669322,37.804660150702396],[-121.575178855541125,37.804512467925605]]]]}},
{"type":"Feature","properties":{"OBJECTID":8.0,"title":"Reception Shaft"},"geometry":{"type":"MultiPolygon","coordinates":[[[[-121.435274833442051,38.117086928600486],[-121.435284629570248,38.116939873478309],[-121.435313909258625,38.116794428750701],[-121.435362352706932,38.116652188865736],[-121.435429429010867,38.116514711532304],[-121.435514402450238,38.116383502876971],[-121.435616343268691,38.116260001186951],[-121.435734133961986,38.116145559945856],[-121.435866484549436,38.116041431575979],[-121.436011943353492,38.115948758247931],[-121.436168918559503,38.115868554915856],[-121.436335689893696,38.115801700833856],[-121.436691222421885,38.11571081390035],[-121.436876089419144,38.115687777639337],[-121.437063003676968,38.115680070377898],[-121.437249918833075,38.115687777639337],[-121.437434785830348,38.11571081390035],[-121.43761557896778,38.115748927538668],[-121.437790318358523,38.115801700833856],[-121.437957089692702,38.115868554915856],[-121.438114064000416,38.115948758247931],[-121.438259523702797,38.116041431575979],[-121.438391874290232,38.116145559945856],[-121.438509664085217,38.116260001186951],[-121.43861160490367,38.116383502876971],[-121.438696579241352,38.116514711532304],[-121.438763655545287,38.116652188865736],[-121.438812098993637,38.116794428750701],[-121.438841378681985,38.116939873478309],[-121.438851174810168,38.117086928600486],[-121.438841378681985,38.117233984133279],[-121.438812098993637,38.117379427985462],[-121.438763655545287,38.117521666453939],[-121.438696579241352,38.11765914189175],[-121.43861160490367,38.117790348255141],[-121.438509664085217,38.117913847357109],[-121.438391874290232,38.118028285827137],[-121.438259523702797,38.118132411364037],[-121.438114064000416,38.118225081921025],[-121.437957089692702,38.118305281958293],[-121.437790318358523,38.118372134455136],[-121.43761557896778,38.118424905854688],[-121.437434785830348,38.118463018076525],[-121.437249918833075,38.118486053462107],[-121.437063003676968,38.118493760427405],[-121.436876089419144,38.118486053462107],[-121.436691222421885,38.118463018076525],[-121.436510429284453,38.118424905854688],[-121.436335689893696,38.118372134455136],[-121.436168918559503,38.118305281958293],[-121.436011943353492,38.118225081921025],[-121.435866484549436,38.118132411364037],[-121.435734133961986,38.118028285827137],[-121.435616343268691,38.117913847357109],[-121.435514402450238,38.117790348255141],[-121.435429429010867,38.11765914189175],[-121.435362352706932,38.117521666453939],[-121.435313909258625,38.117379427985462],[-121.435284629570248,38.117233984133279],[-121.435274833442051,38.117086928600486]]]]}},
{"type":"Feature","properties":{"OBJECTID":9.0,"title":"Maintenance Shaft"},"geometry":{"type":"MultiPolygon","coordinates":[[[[-121.432742828507529,38.190991964984114],[-121.432752623737372,38.190845058100884],[-121.432781904324074,38.1906997613927],[-121.432830347772381,38.190557664868628],[-121.432897423178019,38.190420326777954],[-121.432982397515687,38.190289251721843],[-121.43308433833414,38.190165875118758],[-121.433202129027435,38.190051549081495],[-121.43333447871656,38.189947526882058],[-121.433479938418969,38.189854947416187],[-121.433636913624952,38.189774825316171],[-121.433803684060834,38.18970803823958],[-121.434159217487334,38.189617243358455],[-121.434344083586311,38.189594230429073],[-121.434530998742417,38.189586530973706],[-121.434717913898524,38.189594230429073],[-121.434902779997472,38.189617243358455],[-121.435083574033229,38.189655319100481],[-121.435258313423972,38.18970803823958],[-121.435425083859855,38.189774825316171],[-121.435582059065865,38.189854947416187],[-121.435727518768246,38.189947526882058],[-121.435859868457371,38.190051549081495],[-121.435977659150694,38.190165875118758],[-121.436079599969119,38.190289251721843],[-121.436164574306801,38.190420326777954],[-121.436231649712425,38.190557664868628],[-121.436280093160761,38.1906997613927],[-121.43630937374742,38.190845058100884],[-121.436319168977306,38.190991964984114],[-121.43630937374742,38.191138870865018],[-121.436280093160761,38.191284167403239],[-121.436231649712425,38.191426262509943],[-121.436164574306801,38.191563598703787],[-121.436079599969119,38.191694671466522],[-121.435977659150694,38.191818045479948],[-121.435859868457371,38.191932368744389],[-121.435727518768246,38.192036388109074],[-121.435582059065865,38.192128964802137],[-121.435425083859855,38.192209084312481],[-121.435258313423972,38.192275869095681],[-121.435083574033229,38.192328586337986],[-121.434902779997472,38.192366659956583],[-121.434717913898524,38.192389672716018],[-121.434530998742417,38.192397371169037],[-121.434344083586311,38.192389672716018],[-121.434159217487334,38.192366659956583],[-121.433978423451578,38.192328586337986],[-121.433803684060834,38.192275869095681],[-121.433636913624952,38.192209084312481],[-121.433479938418969,38.192128964802137],[-121.43333447871656,38.192036388109074],[-121.433202129027435,38.191932368744389],[-121.43308433833414,38.191818045479948],[-121.432982397515687,38.191694671466522],[-121.432897423178019,38.191563598703787],[-121.432830347772381,38.191426262509943],[-121.432781904324074,38.191284167403239],[-121.432752623737372,38.191138870865018],[-121.432742828507529,38.190991964984114]]]]}},
{"type":"Feature","properties":{"OBJECTID":10.0,"title":"Water Intake Shaft"},"geometry":{"type":"MultiPolygon","coordinates":[[[[-121.528529876436068,38.348203657268634],[-121.528539672564264,38.348057068037143],[-121.528568952252641,38.347912084793563],[-121.528617395700948,38.347770296222507],[-121.528684472004912,38.347633255090486],[-121.528769445444254,38.347502462745481],[-121.528871386262708,38.347379353615857],[-121.528989176956031,38.347265274777477],[-121.529121527543467,38.347161477497131],[-121.529266986347537,38.347069098208188],[-121.529423961553547,38.346989149349241],[-121.529590732887712,38.346922506680315],[-121.52994626541593,38.346831908116428],[-121.530131132413189,38.346808944945671],[-121.530318046670985,38.346801262138101],[-121.530504961827091,38.346808944945671],[-121.53068982882435,38.346831908116428],[-121.530870621961824,38.346869900826377],[-121.531045361352568,38.346922506680315],[-121.531212132686747,38.346989149349241],[-121.531369106994433,38.347069098208188],[-121.531514566696814,38.347161477497131],[-121.531646917284249,38.347265274777477],[-121.531764707977587,38.347379353615857],[-121.531866647897687,38.347502462745481],[-121.531951622235368,38.347633255090486],[-121.532018698539304,38.347770296222507],[-121.532067141987653,38.347912084793563],[-121.532096421676016,38.348057068037143],[-121.532106217804184,38.348203657268634],[-121.532096421676016,38.348350245498921],[-121.532067141987653,38.348495227865357],[-121.532018698539304,38.348637015721685],[-121.531951622235368,38.348774054954383],[-121.531866647897687,38.348904844298495],[-121.531764707977587,38.349027951539561],[-121.531646917284249,38.349142026896985],[-121.531514566696814,38.349245822043343],[-121.531369106994433,38.349338198555827],[-121.531212132686747,38.349418144821705],[-121.531045361352568,38.349484784489725],[-121.530870621961824,38.349537388444347],[-121.53068982882435,38.349575379735057],[-121.530504961827091,38.349598342733181],[-121.530318046670985,38.349606024539554],[-121.530131132413189,38.349598342733181],[-121.52994626541593,38.349575379735057],[-121.529765472278456,38.349537388444347],[-121.529590732887712,38.349484784489725],[-121.529423961553547,38.349418144821705],[-121.529266986347537,38.349338198555827],[-121.529121527543467,38.349245822043343],[-121.528989176956031,38.349142026896985],[-121.528871386262708,38.349027951539561],[-121.528769445444254,38.348904844298495],[-121.528684472004912,38.348774054954383],[-121.528617395700948,38.348637015721685],[-121.528568952252641,38.348495227865357],[-121.528539672564264,38.348350245498921],[-121.528529876436068,38.348203657268634]]]]}},
{"type":"Feature","properties":{"OBJECTID":11.0,"title":"Water Intake Shaft"},"geometry":{"type":"MultiPolygon","coordinates":[[[[-121.516161662296852,38.377949943466959],[-121.516171975854633,38.377795677198414],[-121.516202801543614,38.377643100732492],[-121.51625380339388,38.377493885905182],[-121.516324421754973,38.37734966724198],[-121.516413882279195,38.377212025759455],[-121.516521206701128,38.37708246783658],[-121.516645217329483,38.376962414649128],[-121.516784555911528,38.376853181040289],[-121.516937696209581,38.376755963546046],[-121.517102961069014,38.376671827716287],[-121.517278537689606,38.376601694731583],[-121.517462504574965,38.376546333654197],[-121.517652845007248,38.376506351566498],[-121.517847473996724,38.376482185118292],[-121.518044258942851,38.376474100525478],[-121.518241043888992,38.376482185118292],[-121.518435671980129,38.376506351566498],[-121.518626012412412,38.376546333654197],[-121.518809979297771,38.376601694731583],[-121.518985556816688,38.376671827716287],[-121.519150820777824,38.376755963546046],[-121.519303961075877,38.376853181040289],[-121.519443299657908,38.376962414649128],[-121.519567311184574,38.37708246783658],[-121.519674634708196,38.377212025759455],[-121.519764095232404,38.37734966724198],[-121.519834713593525,38.377493885905182],[-121.519885715443763,38.377643100732492],[-121.519916541132744,38.377795677198414],[-121.519926854690524,38.377949943466959],[-121.519916541132744,38.378104209406573],[-121.519885715443763,38.378256784900024],[-121.519834713593525,38.378405998153866],[-121.519764095232404,38.378550214007127],[-121.519674634708196,38.378687853647946],[-121.519567311184574,38.378817407991725],[-121.519443299657908,38.378937458101014],[-121.519303961075877,38.37904668926712],[-121.519150820777824,38.379143903683179],[-121.518985556816688,38.379228036638089],[-121.518809979297771,38.37929816707684],[-121.518626012412412,38.3793535253443],[-121.518435671980129,38.379393506562756],[-121.518241043888992,38.379417672038485],[-121.518044258942851,38.379425756302368],[-121.517847473996724,38.379417672038485],[-121.517652845007248,38.379393506562756],[-121.517462504574965,38.3793535253443],[-121.517278537689606,38.37929816707684],[-121.517102961069014,38.379228036638089],[-121.516937696209581,38.379143903683179],[-121.516784555911528,38.37904668926712],[-121.516645217329483,38.378937458101014],[-121.516521206701128,38.378817407991725],[-121.516413882279195,38.378687853647946],[-121.516324421754973,38.378550214007127],[-121.51625380339388,38.378405998153866],[-121.516202801543614,38.378256784900024],[-121.516171975854633,38.378104209406573],[-121.516161662296852,38.377949943466959]]]]}},
{"type":"Feature","properties":{"OBJECTID":24.0,"title":"Reclamation Site"},"geometry":{"type":"MultiPolygon","coordinates":[[[[-121.457184072693167,38.299306550120981],[-121.453064200144965,38.299306550120981],[-121.453064200144965,38.296207991004501],[-121.457184072693167,38.296207991004501],[-121.457184072693167,38.299306550120981]]]]}},
{"type":"Feature","properties":{"OBJECTID":25.0,"title":"Reclamation Site"},"geometry":{"type":"MultiPolygon","coordinates":[[[[-121.520536452853563,38.379958706387427],[-121.51555827341663,38.379958706387427],[-121.51555827341663,38.376056153109552],[-121.520536452853563,38.376056153109552],[-121.520536452853563,38.379958706387427]]]]}},
{"type":"Feature","properties":{"OBJECTID":26.0,"title":"Reclamation Site"},"geometry":{"type":"MultiPolygon","coordinates":[[[[-121.532403021200111,38.349851820295385],[-121.528239281810912,38.349851820295385],[-121.528239281810912,38.346586388952936],[-121.532403021200111,38.346586388952936],[-121.532403021200111,38.349851820295385]]]]}},
{"type":"Feature","properties":{"OBJECTID":27.0,"title":"Reclamation Site"},"geometry":{"type":"MultiPolygon","coordinates":[[[[-121.433150916586925,37.983242297260858],[-121.428730635857178,37.983242297260858],[-121.428730635857178,37.979893498524554],[-121.433150916586925,37.979893498524554],[-121.433150916586925,37.983242297260858]]]]}},
{"type":"Feature","properties":{"OBJECTID":28.0,"title":"Reclamation Site"},"geometry":{"type":"MultiPolygon","coordinates":[[[[-121.579130081330661,37.806156292959294],[-121.574752715816999,37.806156292959294],[-121.574752715816999,37.802833337290366],[-121.579130081330661,37.802833337290366],[-121.579130081330661,37.806156292959294]]]]}}
]
}
