{
"type": "FeatureCollection",
"name": "delta_tunnel",
"crs": { "type": "name", "properties": { "name": "urn:ogc:def:crs:OGC:1.3:CRS84" } },
"features": [
{"type":"Feature","properties":{"FID":0},"geometry":{"type":"MultiLineString","coordinates":[[[-121.48851572196719,37.921957964804989],[-121.489070436595867,37.921370704608776],[-121.489790609670976,37.920465303361546],[-121.490703901892061,37.919216052377962],[-121.491962192996354,37.917399614940877],[-121.495111944423527,37.912615631464305],[-121.498797299944627,37.906806902098801],[-121.503866675001788,37.898627108299173],[-121.509913714654971,37.888705016784634],[-121.517779292315794,37.875636174519364],[-121.519433032138807,37.872784063409362],[-121.520383005941639,37.871075052439117],[-121.521063448103746,37.870052446099201],[-121.521734839065658,37.869240901050794],[-121.522456520636666,37.868541833630985],[-121.523149033012075,37.868008844233294],[-121.523551364622477,37.867752108479841],[-121.524329289264259,37.867309277576119],[-121.524946867771973,37.866852805165735],[-121.526282104970221,37.865702488390824],[-121.527950439047899,37.864151686589224],[-121.530047925960005,37.862122281707848],[-121.532920571825684,37.859267070626657],[-121.540041657087997,37.85200994047554],[-121.541207550309196,37.850085469054562],[-121.542590229109692,37.847908344276178],[-121.544112383036136,37.845610426958011],[-121.545774011414807,37.843191704396489],[-121.547575114694851,37.840652166133097],[-121.549515693100844,37.837991798988725],[-121.551595745959048,37.835210589901372],[-121.553815273943229,37.832308525216717],[-121.556174276828798,37.829285591397813],[-121.558672754840288,37.826141772187036],[-121.56373332887803,37.819921236418963],[-121.569284243821997,37.813275553430906],[-121.576550593881478,37.804752093920726],[-121.576759621076178,37.802972602571558],[-121.576781131469673,37.799895350330985],[-121.575523669556858,37.798356967085716],[-121.572987235337791,37.798357548989365],[-121.571715272142796,37.797516267625255],[-121.571724982139116,37.792492067313127],[-121.571938140374115,37.791518486916878],[-121.573223473041423,37.790688681122994],[-121.574555999006918,37.79055435555464],[-121.581233635624315,37.790540059998598],[-121.589042987140886,37.790570013752721],[-121.59335013271135,37.789524520387666],[-121.597501937271403,37.78740910450562],[-121.600435348346366,37.785444114261701],[-121.605965841124515,37.779652652737354]],[[-121.518095014654719,38.377719034078417],[-121.518155042552365,38.376646062894643],[-121.518133034950807,38.376154392536009],[-121.518068302126864,38.375623597018894],[-121.517975230150611,38.375171632833158],[-121.517830550859642,38.374685507933393],[-121.517666415407106,38.374273250973886],[-121.517441788750773,38.373831798040378],[-121.517206589597322,38.373459250101725],[-121.516937948187007,38.373105389521029],[-121.516344109232762,38.372492269269053],[-121.515632701693647,38.371944848665329],[-121.514607250948202,38.371340214132985],[-121.514291145071937,38.371068345342273],[-121.513999894637976,38.370763765353928],[-121.513690131947257,38.370364895777648],[-121.513423718134277,38.369929617690296],[-121.513012767862463,38.369087603716473],[-121.512734195576698,38.368392188172216],[-121.512519325747249,38.367703074876445],[-121.512368157924996,38.36702026400944],[-121.512280692559045,38.366343756101941],[-121.512258438369926,38.365590218239248],[-121.512306341032442,38.364927103473626],[-121.5124179459267,38.364270292038931],[-121.512619646454098,38.363538913554201],[-121.512866619152248,38.362895496759805],[-121.513310220265126,38.362021091518955],[-121.51387425940645,38.36115860442434],[-121.51455873657622,38.360308035902392],[-121.515441110135015,38.359380353242862],[-121.519071218814716,38.356494138027735],[-121.522346311050597,38.353960164263029],[-121.525994815882086,38.351218214524124],[-121.530591682489671,38.347871751891951],[-121.531172489584108,38.347413249104171],[-121.531620585866662,38.347015704103399],[-121.532047994846508,38.346579731148658],[-121.532394193429781,38.346155686045599],[-121.532633747840308,38.345788770522319],[-121.532826547859855,38.345387255883487],[-121.532929748340905,38.345040367739074],[-121.532969149796727,38.344661384624658],[-121.532927339957624,38.344294330309907],[-121.532804319946464,38.343939204976209],[-121.532626791062171,38.343633551940549],[-121.532418817150031,38.34337383813407],[-121.532161715273276,38.343121340178087],[-121.531807728521102,38.342841607985164],[-121.531126869540699,38.342372038463537],[-121.528628348634641,38.340825072344963],[-121.526273804986175,38.339320274530351],[-121.52286470027957,38.337040797009216],[-121.521155042800487,38.335841340915451],[-121.519294135078724,38.334481141192093],[-121.51757720461454,38.333163120507812],[-121.516220144193923,38.332066961952528],[-121.514968863092932,38.331001796056981],[-121.513730265979191,38.329892567765178],[-121.513157835899378,38.329471934691185],[-121.512603598500689,38.329023966548299],[-121.512012435178519,38.328468255031481],[-121.51164884700799,38.328041462329438],[-121.511402575669507,38.327647670176646],[-121.511290026645881,38.327356397445435],[-121.511208772007222,38.326787073353564],[-121.511047759996885,38.326290651919898],[-121.510771155695352,38.325759063193843],[-121.510421512522143,38.325274089416979],[-121.50989915970159,38.324715231394606],[-121.5092535688038,38.324163853068676],[-121.508513611232914,38.323639293570622],[-121.507625943679855,38.323102607308847],[-121.506916442365792,38.322723839087949],[-121.505388168217337,38.321970365482294],[-121.503580271203361,38.320989236684781],[-121.501499109150345,38.319977822623564],[-121.497932279818215,38.318364998881648],[-121.493221674368385,38.31634138319076],[-121.486667304421147,38.313627117153736],[-121.479725695683172,38.310825331239855],[-121.471734204088449,38.307657283781687],[-121.461508832575433,38.303656374680934],[-121.45939071338249,38.302801250912751],[-121.458336283702991,38.302284198126358],[-121.457404063529665,38.301704785498345],[-121.456669027828241,38.30111634221398],[-121.456316230445495,38.300766969682684],[-121.456039298708021,38.300445310930655],[-121.45563770371615,38.299857256271622],[-121.455359423382873,38.299282542362654],[-121.455172268376543,38.298680225684976],[-121.455072624999431,38.298000707334623],[-121.455169442052068,38.289167354732058],[-121.455332928471861,38.281516369661375],[-121.455488707346476,38.276645743312308],[-121.455681916324039,38.271959183803254],[-121.45587151699371,38.268194351382078],[-121.456133348949578,38.263845341188699],[-121.456432611457529,38.259680496071198],[-121.45671058973231,38.256350496270315],[-121.457078474993992,38.252523368392232],[-121.457448194840055,38.249175105778249]],[[-121.43457431640374,38.19111618389779],[-121.433896387952345,38.189497812254956],[-121.433313007858388,38.187973350215486],[-121.43286373747776,38.186633325433071],[-121.432574058646409,38.185585005783558],[-121.43240776139811,38.184778595420831],[-121.432332659769997,38.184169828994818],[-121.432327295255689,38.183584775952198],[-121.432269088243103,38.183023297054284],[-121.432299530351472,38.181807682035149],[-121.432489128999919,38.178275305018502],[-121.432853071555797,38.172697421542885],[-121.434057404229691,38.156031501930066],[-121.4370453847947,38.116686023322337],[-121.437526862024043,38.111432436340934],[-121.437867084115709,38.107110815270772],[-121.438058694092078,38.104082290020919],[-121.438163467972359,38.101773645860405],[-121.438207599058146,38.099607766406834],[-121.438181279543215,38.098065989702903],[-121.438150715768231,38.0975897746372],[-121.438084079863359,38.097193406078432],[-121.425914409741125,37.990922361281875],[-121.425843876046216,37.989985381977419],[-121.425837840714976,37.989091197582731],[-121.425896304645704,37.98823980966317],[-121.426019266940102,37.987431220240069],[-121.426137074925975,37.986915937443236],[-121.426310747342768,37.986338817009141],[-121.426699248491062,37.985409706544054],[-121.426978827339084,37.984902866234698],[-121.427249520501505,37.984489040869086],[-121.427601561053592,37.984030288992741],[-121.427934364183926,37.983657683628188],[-121.428552739272689,37.983078951367347],[-121.429250741926523,37.982553068228391],[-121.429786723312858,37.982216394939783],[-121.430361721676078,37.981905618348001],[-121.430533173682051,37.981821581525026],[-121.430981691274468,37.981686167342922],[-121.431271793886054,37.981479654963486],[-121.431831372442844,37.981009890142865],[-121.43312587396251,37.979818289116466],[-121.434708293166395,37.978288457344114],[-121.439262527302645,37.973726349395022],[-121.447091644142759,37.965679091845239],[-121.458637045274571,37.953627668059681],[-121.471799566856006,37.939761901495451],[-121.488344060204611,37.922228793882923]],[[-121.457448194840055,38.249040295234643],[-121.457550119039666,38.247948244106418],[-121.457597057360729,38.246809175572224],[-121.45757828189754,38.245708796843289],[-121.457509885294726,38.244796409548236],[-121.457393209635242,38.243912449664528],[-121.457196067159629,38.242917092713505],[-121.456933210675174,38.241960431432872],[-121.456655602057154,38.241171235951946],[-121.43457431640374,38.191082454557069]]]}},
{"type":"Feature","properties":{"FID":1},"geometry":{"type":"MultiLineString","coordinates":[]}}
]
}
