{"type":"FeatureCollection","features":[{"type":"Feature","properties":{"geo_scale":"region","geo_id":"ngw_component_001","geo_name":"Lindsey-Cache Slough","polygon_kind":"habitat_boundary","polygon_class":"habitat_polygon","status":"candidate","geometry_source":"../../mapping/ngw_habitat_components/ngw_habitat_components.geojson","waterway_proxy_source":"../../mapping/reviewed_polygon_updates/reviewed_station_driven_polygons.geojson","region_scale_label":"habitat_region","parent_region_id":null,"is_approximate":false,"snapshot_class":"presentation_region_geometry"},"geometry":{"type":"Polygon","coordinates":[[[-121.776972,38.284926],[-121.790031,38.284688],[-121.805453,38.285113],[-121.805608,38.262481],[-121.806111,38.259895],[-121.809134,38.259165],[-121.810993,38.257339],[-121.805336,38.253871],[-121.805642,38.249363],[-121.787368,38.249168],[-121.787177,38.246621],[-121.773123,38.246171],[-121.770516,38.244673],[-121.768926,38.244823],[-121.768887,38.241862],[-121.761955,38.233964],[-121.752723,38.22707],[-121.745522,38.226997],[-121.741465,38.222671],[-121.741447,38.219549],[-121.732039,38.219579],[-121.732077,38.208925],[-121.70952,38.208084],[-121.703235,38.206289],[-121.701712,38.204942],[-121.699655,38.205391],[-121.698246,38.207336],[-121.696499,38.207854],[-121.693853,38.211879],[-121.69338,38.212214],[-121.683374,38.197797],[-121.682261,38.183654],[-121.675726,38.172107],[-121.672943,38.174579],[-121.670777,38.177011],[-121.66725,38.181661],[-121.665858,38.182431],[-121.661293,38.18836],[-121.659135,38.192683],[-121.658177,38.197215],[-121.659262,38.201966],[-121.661819,38.206229],[-121.663059,38.207629],[-121.664299,38.208543],[-121.671506,38.215545],[-121.673473,38.218257],[-121.675409,38.225259],[-121.675918,38.22878],[-121.676835,38.23174],[-121.676122,38.23278],[-121.675154,38.23342],[-121.653105,38.315085],[-121.648215,38.338362],[-121.642202,38.353583],[-121.641566,38.354929],[-121.614754,38.413043],[-121.587593,38.471343],[-121.587622,38.53502],[-121.583149,38.551937],[-121.583479,38.5727],[-121.583159,38.573413],[-121.582049,38.574234],[-121.568396,38.583076],[-121.638438,38.565629],[-121.638434,38.558112],[-121.633642,38.552474],[-121.633628,38.520248],[-121.646331,38.518636],[-121.657673,38.51407],[-121.65766,38.486667],[-121.667563,38.486664],[-121.667557,38.472687],[-121.675183,38.473494],[-121.67517,38.444191],[-121.693709,38.423483],[-121.693686,38.372248],[-121.712506,38.372394],[-121.712678,38.358463],[-121.740377,38.358671],[-121.741229,38.357677],[-121.745303,38.357602],[-121.745294,38.350942],[-121.749651,38.350939],[-121.74987,38.343534],[-121.758274,38.343527],[-121.758881,38.324816],[-121.763018,38.326193],[-121.764021,38.327472],[-121.766696,38.329111],[-121.770666,38.329537],[-121.773132,38.32934],[-121.773048,38.314685],[-121.786559,38.314686],[-121.787028,38.299155],[-121.780341,38.293481],[-121.777625,38.291939],[-121.777006,38.29026],[-121.77693,38.288695],[-121.776972,38.284926]]]}}]}