{"type":"FeatureCollection","features":[{"type":"Feature","properties":{},"geometry":{"type":"Polygon","coordinates":[[[-121.304669,37.786161],[-121.306385,37.787632],[-121.306128,37.790738],[-121.305189,37.794439],[-121.306803,37.796228],[-121.309612,37.796598],[-121.31152,37.79844],[-121.311579,37.803205],[-121.312441,37.805024],[-121.315978,37.806998],[-121.316818,37.809958],[-121.315296,37.81486],[-121.313691,37.817756],[-121.314979,37.820762],[-121.314745,37.822288],[-121.313445,37.823435],[-121.310752,37.824314],[-121.308484,37.826667],[-121.310764,37.83185],[-121.316746,37.842017],[-121.321232,37.84864],[-121.318566,37.855366],[-121.31569,37.859473],[-121.319891,37.864164],[-121.325267,37.866453],[-121.330205,37.874598],[-121.331017,37.879468],[-121.32988,37.883761],[-121.326323,37.89188],[-121.327297,37.894699],[-121.325755,37.898287],[-121.324618,37.902003],[-121.322465,37.904717],[-121.322201,37.907332],[-121.323629,37.910279],[-121.32244,37.912724],[-121.320573,37.914646],[-121.317407,37.915415],[-121.313591,37.915351],[-121.307709,37.915792],[-121.305938,37.915338],[-121.305005,37.915868],[-121.305169,37.916591],[-121.306031,37.918631],[-121.306527,37.919051],[-121.30715,37.919297],[-121.308563,37.919051],[-121.310515,37.919544],[-121.312423,37.919486],[-121.315266,37.91822],[-121.316257,37.91869],[-121.317172,37.919622],[-121.318745,37.920622],[-121.322435,37.922808],[-121.323432,37.924786],[-121.325634,37.927724],[-121.327444,37.92888],[-121.327371,37.932094],[-121.327811,37.933266],[-121.330146,37.93556],[-121.333631,37.936292],[-121.3344,37.937505],[-121.336007,37.939022],[-121.337499,37.939533],[-121.34282,37.939311],[-121.345325,37.941888],[-121.345946,37.942107],[-121.346451,37.942014],[-121.348356,37.939962],[-121.351009,37.940247],[-121.352889,37.939597],[-121.355387,37.940409],[-121.357577,37.941465],[-121.359534,37.940917],[-121.360898,37.941628],[-121.361436,37.941668],[-121.364701,37.941135],[-121.366668,37.94144],[-121.367782,37.942328],[-121.368799,37.94268],[-121.369834,37.943678],[-121.372232,37.944842],[-121.372157,37.945509],[-121.372315,37.945607],[-121.372495,37.945571],[-121.373005,37.943916],[-121.371848,37.941751],[-121.370933,37.940074],[-121.367579,37.934832],[-121.37616,37.925515],[-121.382388,37.917476],[-121.39824,37.910329],[-121.414599,37.897125],[-121.427528,37.893734],[-121.434907,37.893057],[-121.443488,37.892244],[-121.447973,37.886564],[-121.458076,37.883846],[-121.465041,37.883411],[-121.475303,37.886281],[-121.484569,37.886929],[-121.484276,37.889752],[-121.488439,37.891372],[-121.493306,37.889798],[-121.496883,37.887149],[-121.50966,37.883787],[-121.522562,37.877064],[-121.563264,37.860329],[-121.567664,37.862774],[-121.571364,37.86602],[-121.576298,37.866588],[-121.57966,37.865088],[-121.584225,37.861112],[-121.586239,37.85332],[-121.593271,37.848369],[-121.592559,37.843604],[-121.593855,37.839059],[-121.600052,37.839018],[-121.60076,37.838429],[-121.600476,37.83763],[-121.598003,37.837451],[-121.596174,37.83717],[-121.59513,37.835422],[-121.594719,37.830277],[-121.594619,37.82761],[-121.593612,37.826005],[-121.58612,37.819805],[-121.578767,37.821697],[-121.574744,37.82603],[-121.564778,37.826103],[-121.556402,37.828208],[-121.553495,37.828448],[-121.552763,37.825921],[-121.554317,37.820287],[-121.556512,37.818626],[-121.558706,37.817759],[-121.559658,37.817105],[-121.559729,37.816347],[-121.557912,37.815286],[-121.554439,37.814657],[-121.547495,37.810714],[-121.543155,37.8094],[-121.538814,37.806256],[-121.533751,37.804427],[-121.530134,37.801604],[-121.527023,37.797945],[-121.523479,37.797031],[-121.520368,37.794196],[-121.516285,37.790944],[-121.518159,37.788193],[-121.517797,37.776644],[-121.51692,37.776631],[-121.516486,37.78048],[-121.516594,37.786466],[-121.513563,37.788822],[-121.509965,37.789459],[-121.508595,37.789056],[-121.507225,37.788377],[-121.507333,37.787103],[-121.506984,37.785766],[-121.505045,37.785189],[-121.500507,37.784598],[-121.499164,37.78256],[-121.498385,37.781265],[-121.497108,37.780942],[-121.491282,37.781343],[-121.486451,37.780082],[-121.482223,37.782112],[-121.479303,37.784834],[-121.475036,37.786905],[-121.4742,37.79014],[-121.470831,37.792743],[-121.467163,37.793895],[-121.466115,37.79916],[-121.465216,37.800284],[-121.456532,37.800994],[-121.450468,37.80058],[-121.443281,37.801143],[-121.437816,37.800197],[-121.436393,37.799633],[-121.434971,37.796234],[-121.435345,37.79434],[-121.433324,37.793394],[-121.427505,37.793869],[-121.425035,37.795999],[-121.423238,37.795999],[-121.422714,37.794402],[-121.423313,37.792804],[-121.421456,37.79045],[-121.418686,37.788675],[-121.415841,37.784238],[-121.412852,37.782771],[-121.409483,37.782416],[-121.410456,37.780227],[-121.411204,37.77883],[-121.41023,37.777469],[-121.402968,37.77664],[-121.399899,37.774332],[-121.395942,37.772544],[-121.390926,37.773373],[-121.386659,37.772367],[-121.387557,37.77071],[-121.385985,37.769467],[-121.382466,37.769881],[-121.38052,37.768283],[-121.37775,37.767455],[-121.373408,37.767573],[-121.370114,37.768698],[-121.368766,37.766567],[-121.364798,37.765975],[-121.360845,37.766528],[-121.356652,37.766351],[-121.350724,37.766035],[-121.338329,37.76611],[-121.325508,37.769438],[-121.313723,37.776555],[-121.308306,37.781537],[-121.305414,37.783832],[-121.304669,37.786161]]]}}]}