{"type":"FeatureCollection","features":[{"type":"Feature","properties":{"name":"SAN FRANCISCO BAY SUB REGION"},"geometry":{"type":"Point","coordinates":[-122.31822149067114,38.00823453371482]}},{"type":"Feature","properties":{"name":"TULARE BASIN SUB REGION"},"geometry":{"type":"Point","coordinates":[-119.1243259057235,36.05854178783673]}},{"type":"Feature","properties":{"name":"SAN JOAQUIN SUB REGION"},"geometry":{"type":"Point","coordinates":[-120.3609986898305,37.522825501693625]}},{"type":"Feature","properties":{"name":"SACRAMENTO SUB REGION"},"geometry":{"type":"Point","coordinates":[-121.48367371605855,39.925426760242985]}}]}
