{"type":"FeatureCollection","features":[{"type":"Feature","properties":{},"geometry":{"type":"Polygon","coordinates":[[[-122.491954,38.108917],[-122.489018,38.107361],[-122.487466,38.105077],[-122.487706,38.099796],[-122.486567,38.098664],[-122.487527,38.09489],[-122.486089,38.093758],[-122.48519,38.091871],[-122.484651,38.079655],[-122.484181,38.073067],[-122.487256,38.066521],[-122.48925,38.061351],[-122.492076,38.057163],[-122.492957,38.051056],[-122.492934,38.047152],[-122.494597,38.044142],[-122.496924,38.037416],[-122.498282,38.030527],[-122.497214,38.023146],[-122.49738,38.018498],[-122.497879,38.016992],[-122.496964,38.015486],[-122.494637,38.015617],[-122.491728,38.014962],[-122.488959,38.01435],[-122.486039,38.012511],[-122.484069,38.010312],[-122.481606,38.008436],[-122.477875,38.006716],[-122.473934,38.006458],[-122.472784,38.00497],[-122.47065,38.005034],[-122.468761,38.003288],[-122.465724,38.004452],[-122.463835,38.002835],[-122.462604,38.003611],[-122.460551,38.000117],[-122.458909,37.998565],[-122.456035,37.997077],[-122.453572,37.993324],[-122.450781,37.992483],[-122.449631,37.990153],[-122.447004,37.985882],[-122.43789,37.983359],[-122.427873,37.981417],[-122.42032,37.97954],[-122.407512,37.976434],[-122.398891,37.974233],[-122.3938,37.973068],[-122.388874,37.972486],[-122.386146,37.973207],[-122.385187,37.973165],[-122.38481,37.974048],[-122.383691,37.975645],[-122.381612,37.976275],[-122.375056,37.974636],[-122.37335,37.974762],[-122.371537,37.975477],[-122.371431,37.976947],[-122.369725,37.97804],[-122.370365,37.978502],[-122.372284,37.978502],[-122.372017,37.979132],[-122.368179,37.978712],[-122.368552,37.980141],[-122.367646,37.981065],[-122.365461,37.980645],[-122.364802,37.982454],[-122.363469,37.983925],[-122.36315,37.985185],[-122.361924,37.987202],[-122.360005,37.988588],[-122.359578,37.990352],[-122.360218,37.993167],[-122.360857,37.995225],[-122.363363,37.997032],[-122.364802,37.996654],[-122.36566,37.997728],[-122.365372,37.998712],[-122.366139,37.999241],[-122.366235,38.001548],[-122.367003,38.00359],[-122.367819,38.005859],[-122.368107,38.008279],[-122.366523,38.012477],[-122.365468,38.012855],[-122.364412,38.012552],[-122.363068,38.009716],[-122.360859,38.008188],[-122.357069,38.008166],[-122.353997,38.008506],[-122.352413,38.007977],[-122.349294,38.005746],[-122.345235,38.005254],[-122.341827,38.003174],[-122.337604,38.002078],[-122.333236,38.001208],[-122.324241,38.004917],[-122.316192,38.011362],[-122.312065,38.01053],[-122.308849,38.009811],[-122.304866,38.01053],[-122.299539,38.010341],[-122.297859,38.0114],[-122.297235,38.014122],[-122.293444,38.015944],[-122.290902,38.017674],[-122.289515,38.020086],[-122.290208,38.022635],[-122.286395,38.021088],[-122.282466,38.022362],[-122.280964,38.024228],[-122.279346,38.027141],[-122.276515,38.029281],[-122.274955,38.033149],[-122.274955,38.036699],[-122.273452,38.037017],[-122.273422,38.03888],[-122.272358,38.04172],[-122.272358,38.044373],[-122.2726,38.047643],[-122.273476,38.051622],[-122.274554,38.055495],[-122.274689,38.058996],[-122.275363,38.062285],[-122.276238,38.064937],[-122.275752,38.067873],[-122.2775,38.073407],[-122.280295,38.078542],[-122.285886,38.086295],[-122.290787,38.09208],[-122.296402,38.097872],[-122.302126,38.102534],[-122.30998,38.108138],[-122.318433,38.113427],[-122.330547,38.119554],[-122.343659,38.125523],[-122.356372,38.129712],[-122.358768,38.130131],[-122.359567,38.131858],[-122.360965,38.132591],[-122.363028,38.133795],[-122.367282,38.135421],[-122.373605,38.137567],[-122.386598,38.141975],[-122.391456,38.14297],[-122.396182,38.143703],[-122.400676,38.148717],[-122.401168,38.149298],[-122.402987,38.148988],[-122.404216,38.148524],[-122.404413,38.147983],[-122.404659,38.147209],[-122.405544,38.145972],[-122.40638,38.143613],[-122.407602,38.140844],[-122.409077,38.138872],[-122.411487,38.136009],[-122.415126,38.133418],[-122.419896,38.130091],[-122.421814,38.129704],[-122.42265,38.128737],[-122.422453,38.127732],[-122.423535,38.127577],[-122.426021,38.126135],[-122.428725,38.125632],[-122.429856,38.123427],[-122.434725,38.120835],[-122.437577,38.120177],[-122.438364,38.119249],[-122.439781,38.117856],[-122.441324,38.117311],[-122.442836,38.11627],[-122.443979,38.115918],[-122.447126,38.116808],[-122.448503,38.117272],[-122.44993,38.117156],[-122.451159,38.116576],[-122.451651,38.117659],[-122.451552,38.118859],[-122.452493,38.119826],[-122.45387,38.120174],[-122.455985,38.119052],[-122.459434,38.117913],[-122.462778,38.117604],[-122.46681,38.116791],[-122.479399,38.115476],[-122.484583,38.114104],[-122.490876,38.112218],[-122.492014,38.111605],[-122.492913,38.110285],[-122.491954,38.108917]]]}},{"type":"Feature","properties":{},"geometry":{"type":"Polygon","coordinates":[[[-122.127159,38.049902],[-122.123187,38.04492],[-122.11962,38.040315],[-122.116861,38.036289],[-122.112595,38.038838],[-122.106835,38.040505],[-122.094294,38.043749],[-122.092896,38.043691],[-122.091867,38.04401],[-122.091499,38.044763],[-122.090984,38.045864],[-122.088189,38.046588],[-122.088667,38.047428],[-122.087895,38.047688],[-122.086754,38.047543],[-122.084264,38.047714],[-122.083271,38.047598],[-122.082499,38.047743],[-122.081212,38.048322],[-122.079888,38.048351],[-122.079065,38.048797],[-122.075828,38.048652],[-122.073893,38.048786],[-122.072569,38.049104],[-122.07198,38.049713],[-122.071272,38.049984],[-122.070794,38.050997],[-122.072228,38.05149],[-122.072044,38.051895],[-122.071382,38.051895],[-122.071272,38.05259],[-122.070279,38.053314],[-122.069396,38.053083],[-122.068219,38.052127],[-122.066638,38.052069],[-122.064836,38.052631],[-122.063659,38.052515],[-122.06246,38.052779],[-122.05976,38.052544],[-122.057076,38.051472],[-122.055384,38.05098],[-122.053876,38.050661],[-122.052442,38.050488],[-122.051081,38.050835],[-122.049133,38.051172],[-122.048173,38.051745],[-122.046316,38.052845],[-122.045101,38.053513],[-122.044211,38.05378],[-122.043139,38.054127],[-122.042201,38.054702],[-122.041905,38.054691],[-122.041721,38.054813],[-122.041721,38.054936],[-122.041537,38.055102],[-122.041212,38.054947],[-122.039842,38.055492],[-122.039418,38.055748],[-122.039022,38.05567],[-122.038161,38.055848],[-122.036253,38.056159],[-122.034657,38.05646],[-122.033739,38.056827],[-122.031662,38.057227],[-122.03102,38.057323],[-122.030559,38.057437],[-122.030241,38.057481],[-122.030018,38.057572],[-122.029641,38.057717],[-122.029139,38.057554],[-122.028879,38.057467],[-122.028625,38.057546],[-122.028572,38.057638],[-122.028265,38.0576],[-122.028058,38.057642],[-122.027942,38.057729],[-122.027608,38.057729],[-122.027439,38.057559],[-122.027058,38.057538],[-122.027005,38.057634],[-122.02655,38.057734],[-122.026311,38.057617],[-122.025634,38.057734],[-122.025215,38.057742],[-122.024993,38.05783],[-122.024073,38.0578],[-122.024047,38.057613],[-122.022644,38.057609],[-122.022602,38.057817],[-122.022067,38.057671],[-122.021404,38.057836],[-122.021133,38.057559],[-122.020688,38.057588],[-122.01979,38.057753],[-122.01975,38.057426],[-122.019591,38.057374],[-122.019453,38.057592],[-122.018899,38.057496],[-122.018301,38.057379],[-122.017612,38.057354],[-122.017045,38.057221],[-122.016193,38.057121],[-122.01559,38.057075],[-122.015087,38.057117],[-122.014218,38.05705],[-122.014242,38.056702],[-122.013611,38.056819],[-122.013013,38.056765],[-122.012526,38.056498],[-122.011938,38.056565],[-122.011859,38.056452],[-122.011663,38.056415],[-122.011398,38.056373],[-122.011128,38.05644],[-122.010768,38.056289],[-122.010502,38.056389],[-122.009701,38.055944],[-122.008718,38.05588],[-122.007735,38.055584],[-122.007074,38.055254],[-122.006228,38.055013],[-122.005312,38.054778],[-122.004653,38.054512],[-122.004407,38.054639],[-122.003489,38.054328],[-122.002933,38.054277],[-122.001733,38.054063],[-122.000993,38.054028],[-122.000156,38.05382],[-121.998722,38.053947],[-121.998665,38.053775],[-121.998126,38.05368],[-121.997545,38.053813],[-121.996401,38.053484],[-121.995682,38.053808],[-121.994916,38.053827],[-121.994538,38.053592],[-121.993926,38.053361],[-121.992877,38.053707],[-121.992992,38.054344],[-121.992829,38.054582],[-121.992541,38.054652],[-121.992293,38.054308],[-121.991989,38.054106],[-121.991713,38.053817],[-121.991495,38.053729],[-121.991075,38.05328],[-121.990552,38.053172],[-121.990219,38.053046],[-121.989979,38.052755],[-121.989341,38.052424],[-121.989044,38.052401],[-121.988253,38.052081],[-121.987336,38.051989],[-121.986246,38.051521],[-121.985912,38.051263],[-121.985723,38.051224],[-121.985223,38.050818],[-121.984497,38.050387],[-121.983569,38.049839],[-121.983562,38.049645],[-121.983184,38.049703],[-121.982496,38.048945],[-121.981662,38.048717],[-121.981418,38.048746],[-121.98121,38.048455],[-121.980658,38.048472],[-121.979549,38.047895],[-121.97922,38.048037],[-121.979157,38.047889],[-121.9787,38.047912],[-121.978356,38.047517],[-121.977812,38.047797],[-121.977636,38.047247],[-121.9773,38.047175],[-121.977259,38.047801],[-121.977015,38.047872],[-121.975629,38.047575],[-121.975397,38.04734],[-121.974939,38.047518],[-121.974351,38.047397],[-121.974157,38.047099],[-121.97368,38.04741],[-121.973447,38.046979],[-121.973108,38.046947],[-121.972835,38.047328],[-121.972625,38.047195],[-121.972277,38.047503],[-121.97077,38.047554],[-121.970351,38.047478],[-121.969795,38.047624],[-121.969521,38.047681],[-121.969441,38.047548],[-121.969223,38.047681],[-121.96899,38.047789],[-121.969078,38.047967],[-121.968635,38.048068],[-121.968311,38.047945],[-121.967441,38.047996],[-121.966369,38.047786],[-121.966015,38.047475],[-121.965338,38.047824],[-121.965007,38.047539],[-121.964685,38.04764],[-121.964524,38.048002],[-121.964057,38.048103],[-121.96309,38.047685],[-121.962752,38.047558],[-121.962397,38.047761],[-121.96222,38.047774],[-121.961882,38.047996],[-121.961761,38.048072],[-121.961559,38.048084],[-121.961332,38.048377],[-121.960905,38.04839],[-121.960486,38.048168],[-121.960494,38.04792],[-121.960293,38.047844],[-121.959987,38.047768],[-121.959801,38.047831],[-121.959068,38.047768],[-121.958722,38.048231],[-121.957739,38.048466],[-121.957143,38.048764],[-121.956804,38.049354],[-121.956418,38.049233],[-121.955895,38.049166],[-121.955814,38.048855],[-121.95612,38.04876],[-121.955716,38.048558],[-121.955113,38.048481],[-121.954778,38.048567],[-121.954399,38.048453],[-121.953602,38.048402],[-121.953006,38.047787],[-121.952804,38.047463],[-121.952522,38.04745],[-121.952418,38.047882],[-121.951781,38.048193],[-121.951588,38.049125],[-121.951032,38.049468],[-121.950847,38.049074],[-121.95046,38.049487],[-121.949944,38.049544],[-121.949745,38.049965],[-121.949782,38.050283],[-121.949574,38.050438],[-121.949096,38.050051],[-121.947894,38.049849],[-121.94555,38.050191],[-121.943171,38.050597],[-121.940989,38.05106],[-121.937777,38.051745],[-121.936037,38.05217],[-121.934653,38.052572],[-121.933027,38.053601],[-121.932377,38.054778],[-121.932095,38.055763],[-121.93158,38.055975],[-121.929717,38.055705],[-121.928785,38.055473],[-121.928344,38.055396],[-121.927914,38.055444],[-121.926687,38.056253],[-121.925135,38.056328],[-121.924359,38.056521],[-121.923678,38.057079],[-121.922581,38.057386],[-121.921205,38.05789],[-121.920388,38.057976],[-121.919626,38.058276],[-121.919173,38.058654],[-121.919077,38.059203],[-121.918655,38.059493],[-121.918736,38.059793],[-121.919072,38.059943],[-121.918614,38.060061],[-121.918573,38.06049],[-121.918451,38.061541],[-121.918664,38.061819],[-121.918242,38.06258],[-121.918432,38.062974],[-121.918378,38.063542],[-121.917969,38.064003],[-121.918092,38.064304],[-121.918473,38.064582],[-121.918296,38.065311],[-121.918582,38.065826],[-121.918228,38.066265],[-121.918392,38.066561],[-121.918936,38.067123],[-121.918623,38.06753],[-121.919326,38.067971],[-121.918882,38.068369],[-121.919004,38.069008],[-121.919241,38.069754],[-121.918681,38.069942],[-121.918039,38.069949],[-121.917957,38.070123],[-121.917984,38.07031],[-121.917361,38.07052],[-121.916719,38.070592],[-121.915994,38.071047],[-121.915407,38.071415],[-121.914921,38.071495],[-121.914673,38.071386],[-121.914536,38.071502],[-121.913976,38.071487],[-121.913424,38.071794],[-121.913056,38.071714],[-121.912781,38.071841],[-121.912359,38.071786],[-121.911975,38.071613],[-121.911516,38.071476],[-121.910966,38.071418],[-121.910443,38.07157],[-121.909994,38.072473],[-121.909535,38.073491],[-121.909232,38.074516],[-121.908965,38.074862],[-121.908739,38.075011],[-121.908374,38.0751],[-121.907017,38.075179],[-121.906866,38.075307],[-121.906854,38.076039],[-121.906891,38.076643],[-121.907268,38.077197],[-121.907796,38.077296],[-121.908399,38.077296],[-121.909116,38.077167],[-121.909315,38.077074],[-121.909464,38.077109],[-121.909392,38.077197],[-121.909003,38.077405],[-121.908688,38.07787],[-121.908864,38.078473],[-121.90899,38.079076],[-121.908824,38.079314],[-121.909717,38.080234],[-121.910244,38.08063],[-121.910496,38.081206],[-121.910345,38.0815],[-121.910672,38.081688],[-121.911363,38.082245],[-121.911514,38.082519],[-121.911765,38.082747],[-121.912431,38.082641],[-121.913185,38.083115],[-121.913652,38.082971],[-121.913911,38.083137],[-121.914502,38.083068],[-121.914891,38.083127],[-121.915406,38.083097],[-121.915839,38.082862],[-121.916542,38.082971],[-121.917372,38.082783],[-121.917874,38.082427],[-121.917962,38.082813],[-121.918427,38.082833],[-121.918817,38.082852],[-121.919107,38.082694],[-121.919458,38.082595],[-121.919847,38.082308],[-121.920446,38.08216],[-121.92154,38.081834],[-121.92213,38.081586],[-121.922522,38.0813],[-121.923917,38.081122],[-121.924806,38.080843],[-121.925538,38.080993],[-121.92677,38.080776],[-121.927697,38.080843],[-121.928463,38.080507],[-121.928853,38.080546],[-121.928714,38.0811],[-121.929129,38.081229],[-121.929494,38.081357],[-121.929858,38.081308],[-121.930789,38.081034],[-121.931367,38.080975],[-121.931883,38.080678],[-121.932482,38.08062],[-121.933265,38.080045],[-121.93359,38.079968],[-121.933891,38.080225],[-121.934268,38.080186],[-121.934542,38.079762],[-121.935102,38.07981],[-121.935592,38.079919],[-121.936258,38.079711],[-121.93715,38.079927],[-121.937326,38.080186],[-121.937778,38.080194],[-121.938671,38.080164],[-121.939701,38.07968],[-121.940594,38.079294],[-121.941473,38.07869],[-121.942309,38.078163],[-121.943693,38.078042],[-121.945187,38.077755],[-121.947375,38.076853],[-121.947757,38.077371],[-121.948267,38.077571],[-121.948967,38.077454],[-121.949647,38.077237],[-121.949753,38.076853],[-121.949881,38.076401],[-121.951124,38.075309],[-121.95111,38.075742],[-121.952002,38.075742],[-121.952059,38.076161],[-121.952738,38.076211],[-121.953481,38.076562],[-121.954586,38.076779],[-121.95584,38.076996],[-121.956327,38.077465],[-121.956263,38.078267],[-121.956624,38.078635],[-121.957499,38.078737],[-121.959477,38.079539],[-121.960145,38.079181],[-121.961104,38.076728],[-121.962243,38.077011],[-121.9641,38.074936],[-121.965639,38.074654],[-121.969627,38.07397],[-121.973761,38.073981],[-121.97604,38.07798],[-121.978497,38.079112],[-121.980175,38.079207],[-121.981601,38.080348],[-121.982272,38.082367],[-121.983762,38.084383],[-121.985328,38.085622],[-121.987226,38.086263],[-121.991013,38.086316],[-121.992271,38.085467],[-121.996766,38.087165],[-122.003837,38.089948],[-122.009051,38.092307],[-122.016829,38.095221],[-122.018531,38.095333],[-122.019205,38.095974],[-122.020219,38.096369],[-122.020711,38.097289],[-122.018827,38.097365],[-122.01755,38.097591],[-122.017614,38.098144],[-122.016624,38.098495],[-122.016018,38.098144],[-122.015603,38.098495],[-122.014517,38.09842],[-122.013112,38.098043],[-122.012187,38.098244],[-122.01142,38.098621],[-122.011101,38.098973],[-122.009792,38.099249],[-122.00909,38.099073],[-122.008355,38.099727],[-122.007557,38.100279],[-122.007781,38.100656],[-122.007014,38.100882],[-122.006599,38.101008],[-122.006248,38.10136],[-122.006826,38.101953],[-122.005677,38.102053],[-122.004528,38.101551],[-122.003251,38.10135],[-122.002293,38.102279],[-122.001175,38.10243],[-122.000058,38.103108],[-122.00009,38.103912],[-121.999803,38.104138],[-121.998047,38.103862],[-121.996802,38.104038],[-121.996128,38.105428],[-121.994084,38.105478],[-121.992712,38.105629],[-121.991626,38.106483],[-121.991307,38.106784],[-121.991562,38.107337],[-121.991083,38.108141],[-121.993478,38.108718],[-121.992999,38.109547],[-121.991977,38.109774],[-121.990924,38.110728],[-121.98987,38.111004],[-121.989583,38.111507],[-121.98837,38.111783],[-121.987862,38.112277],[-121.986608,38.112209],[-121.98518,38.112554],[-121.983776,38.113734],[-121.986298,38.119612],[-121.988309,38.123178],[-121.989219,38.125297],[-121.990911,38.127733],[-121.992699,38.129969],[-121.996417,38.134023],[-121.998709,38.136332],[-122.001423,38.138315],[-122.002412,38.138592],[-122.002795,38.13927],[-122.003721,38.139772],[-122.005541,38.139998],[-122.00701,38.140801],[-122.009021,38.140726],[-122.010968,38.140525],[-122.014515,38.139392],[-122.015281,38.138714],[-122.02023,38.137358],[-122.021252,38.13771],[-122.02288,38.138136],[-122.024511,38.138162],[-122.026523,38.137509],[-122.028245,38.13728],[-122.030341,38.137714],[-122.031702,38.137541],[-122.033882,38.137669],[-122.037145,38.136557],[-122.037881,38.136846],[-122.038653,38.136904],[-122.039362,38.136483],[-122.040465,38.13683],[-122.041716,38.136802],[-122.042411,38.13646],[-122.043187,38.13712],[-122.044069,38.137062],[-122.046055,38.136802],[-122.04749,38.135731],[-122.048446,38.135789],[-122.049292,38.135413],[-122.050171,38.134175],[-122.051017,38.134061],[-122.052047,38.133799],[-122.052856,38.133107],[-122.053981,38.133018],[-122.057527,38.131311],[-122.060689,38.128591],[-122.061646,38.127087],[-122.06183,38.125988],[-122.062722,38.124922],[-122.062893,38.124228],[-122.063899,38.123765],[-122.064818,38.122665],[-122.06537,38.120987],[-122.065094,38.11973],[-122.064403,38.118567],[-122.064035,38.117207],[-122.064182,38.11495],[-122.064836,38.112785],[-122.066418,38.108821],[-122.068975,38.105393],[-122.072506,38.101399],[-122.076772,38.097839],[-122.085248,38.091256],[-122.094589,38.084106],[-122.099066,38.079739],[-122.105024,38.074904],[-122.110909,38.069576],[-122.11802,38.061681],[-122.123537,38.055166],[-122.127159,38.049902]]]}},{"type":"Feature","properties":{},"geometry":{"type":"Polygon","coordinates":[[[-121.607856,38.019221],[-121.607519,38.018749],[-121.606882,38.018571],[-121.605719,38.019162],[-121.603882,38.019723],[-121.60272,38.019398],[-121.602157,38.018955],[-121.600058,38.020218],[-121.595202,38.025242],[-121.584825,38.03],[-121.583242,38.030326],[-121.581892,38.031212],[-121.58103,38.032098],[-121.58133,38.033191],[-121.582776,38.036957],[-121.582172,38.039416],[-121.581572,38.040479],[-121.581459,38.042721],[-121.580522,38.043164],[-121.580072,38.043577],[-121.580147,38.044434],[-121.579676,38.045426],[-121.580021,38.048774],[-121.579421,38.051431],[-121.580728,38.057623],[-121.580442,38.05972],[-121.580742,38.06034],[-121.58108,38.061787],[-121.583105,38.062731],[-121.584327,38.063171],[-121.587641,38.064001],[-121.590604,38.064237],[-121.597613,38.064776],[-121.602078,38.061883],[-121.604891,38.061204],[-121.609203,38.062207],[-121.614152,38.063565],[-121.617787,38.0638],[-121.622549,38.061497],[-121.624836,38.057423],[-121.627146,38.052043],[-121.629776,38.050888],[-121.6318,38.051331],[-121.63246,38.050974],[-121.634125,38.049737],[-121.635394,38.046684],[-121.635507,38.04571],[-121.634982,38.044618],[-121.634307,38.043141],[-121.633745,38.041546],[-121.632332,38.041095],[-121.630945,38.040917],[-121.629203,38.041557],[-121.628058,38.040769],[-121.628163,38.038262],[-121.627225,38.037583],[-121.625275,38.037258],[-121.624338,38.035811],[-121.622763,38.034098],[-121.621151,38.033803],[-121.620251,38.0333],[-121.619014,38.032031],[-121.615946,38.030205],[-121.613867,38.029132],[-121.610519,38.023475],[-121.607856,38.019221]]]}}]}