{"type":"FeatureCollection","features":[{"type":"Feature","geometry":{"type":"Polygon","coordinates":[[[-121.582521,37.856632],[-121.582988,37.85377],[-121.583168,37.853485],[-121.584035,37.852912],[-121.584485,37.85242],[-121.584535,37.851925],[-121.583949,37.851001],[-121.583762,37.850623],[-121.583286,37.850267],[-121.58281,37.850054],[-121.58229,37.849506],[-121.582115,37.84903],[-121.582185,37.848488],[-121.582449,37.848052],[-121.583502,37.847292],[-121.584029,37.846948],[-121.584593,37.84681],[-121.586673,37.846618],[-121.58751,37.846655],[-121.588471,37.846984],[-121.589069,37.847109],[-121.589461,37.847067],[-121.589995,37.846697],[-121.590205,37.846285],[-121.590104,37.845518],[-121.590075,37.844005],[-121.591102,37.841047],[-121.591211,37.840489],[-121.59119,37.839823],[-121.591035,37.839165],[-121.590677,37.838195],[-121.59082,37.837601],[-121.591402,37.8372],[-121.592822,37.837153],[-121.592988,37.836884],[-121.592988,37.836351],[-121.592958,37.833785],[-121.592846,37.833566],[-121.592856,37.833389],[-121.592914,37.833306],[-121.593049,37.833261],[-121.593322,37.833267],[-121.593342,37.832834],[-121.593222,37.831682],[-121.592909,37.8316],[-121.592847,37.831431],[-121.593003,37.831159],[-121.592989,37.831001],[-121.593002,37.82933],[-121.592958,37.828915],[-121.592935,37.82835],[-121.592993,37.828128],[-121.593037,37.827808],[-121.592701,37.827244],[-121.592875,37.826334],[-121.592728,37.825815],[-121.592259,37.825371],[-121.587045,37.821428],[-121.585933,37.821015],[-121.584566,37.820835],[-121.583467,37.820994],[-121.581819,37.82165],[-121.581095,37.821968],[-121.580505,37.822487],[-121.575721,37.826904],[-121.574938,37.827021],[-121.565934,37.826957],[-121.564824,37.827085],[-121.559917,37.828016],[-121.559056,37.828267],[-121.558211,37.828678],[-121.557618,37.829199],[-121.557409,37.829645],[-121.557069,37.829844],[-121.556997,37.830153],[-121.556686,37.830381],[-121.555359,37.830639],[-121.554846,37.830707],[-121.554731,37.830839],[-121.555126,37.831809],[-121.561823,37.848651],[-121.5619,37.848898],[-121.56264,37.849895],[-121.564781,37.851399],[-121.565921,37.852414],[-121.567143,37.854974],[-121.567794,37.855644],[-121.568373,37.855938],[-121.580812,37.857158],[-121.581445,37.857173],[-121.582051,37.857057],[-121.582306,37.856872],[-121.582521,37.856632]]]},"properties":{"geo_scale":"region","geo_id":"clifton_court_forebay","geo_name":"Clifton Court Forebay","polygon_kind":"open_water_body_boundary","polygon_class":"candidate_polygon","status":"candidate","geometry_source":"../../mapping/clifton_court_forebay/clifton_court_forebay_candidates.geojson","waterway_proxy_source":null,"region_scale_label":"open_water_body","parent_region_id":"ngw_component_002","is_approximate":false,"snapshot_class":"presentation_region_geometry"}}]}
