{"type":"FeatureCollection","features":[{"type":"Feature","geometry":{"type":"Polygon","coordinates":[[[-121.583648,38.048887],[-121.583404,38.046523],[-121.583622,38.045403],[-121.583719,38.045002],[-121.585041,38.042875],[-121.58537,38.042306],[-121.585567,38.041716],[-121.585653,38.041157],[-121.585657,38.040195],[-121.585284,38.038989],[-121.585131,38.037689],[-121.585041,38.037097],[-121.584887,38.036492],[-121.584683,38.036205],[-121.584649,38.035998],[-121.58451,38.035639],[-121.584314,38.035388],[-121.583998,38.034784],[-121.583906,38.03446],[-121.583913,38.034093],[-121.583855,38.033897],[-121.582946,38.032998],[-121.581995,38.032215],[-121.581815,38.031877],[-121.581834,38.031696],[-121.582051,38.031423],[-121.582382,38.031276],[-121.582964,38.031223],[-121.58323,38.03116],[-121.583416,38.031111],[-121.583621,38.031047],[-121.583792,38.030994],[-121.583983,38.030932],[-121.584091,38.030868],[-121.584105,38.030799],[-121.584037,38.030632],[-121.584089,38.030267],[-121.584375,38.029999],[-121.584658,38.029879],[-121.58445,38.029275],[-121.582611,38.01829],[-121.580671,38.00657],[-121.580284,37.99446],[-121.581982,37.989033],[-121.582782,37.9838],[-121.581275,37.977907],[-121.581053,37.97636],[-121.581351,37.97306],[-121.581802,37.97258],[-121.581783,37.972137],[-121.581519,37.971839],[-121.581164,37.971532],[-121.580864,37.971397],[-121.580268,37.971587],[-121.579065,37.971831],[-121.578137,37.972188],[-121.576662,37.972659],[-121.576054,37.972714],[-121.574847,37.971922],[-121.574145,37.970917],[-121.574648,37.967332],[-121.574697,37.966076],[-121.573901,37.963959],[-121.574262,37.963418],[-121.574064,37.962917],[-121.573399,37.962493],[-121.572311,37.962638],[-121.570925,37.96178],[-121.566994,37.960364],[-121.566188,37.959907],[-121.565679,37.959394],[-121.565736,37.958925],[-121.566068,37.958604],[-121.567201,37.958172],[-121.568397,37.958022],[-121.569531,37.958042],[-121.570243,37.958282],[-121.571114,37.9584],[-121.571695,37.958343],[-121.574562,37.95699],[-121.5753,37.956337],[-121.575695,37.955133],[-121.574934,37.954204],[-121.573953,37.953421],[-121.573037,37.95313],[-121.570274,37.953682],[-121.56713,37.954284],[-121.566418,37.954259],[-121.565354,37.95354],[-121.565332,37.952694],[-121.566454,37.951553],[-121.568,37.950215],[-121.569091,37.949096],[-121.569527,37.948064],[-121.569524,37.947087],[-121.569454,37.945799],[-121.568713,37.943991],[-121.568036,37.9434],[-121.567189,37.943114],[-121.565327,37.943267],[-121.564334,37.943092],[-121.563585,37.942427],[-121.563295,37.941721],[-121.563871,37.941186],[-121.565831,37.940136],[-121.566193,37.939908],[-121.571517,37.939715],[-121.571223,37.939205],[-121.570352,37.938709],[-121.567111,37.938804],[-121.563337,37.93867],[-121.56276,37.938332],[-121.562956,37.936239],[-121.562367,37.934709],[-121.560533,37.933113],[-121.558494,37.931431],[-121.55922,37.929578],[-121.560184,37.928042],[-121.560208,37.926418],[-121.559071,37.923974],[-121.557501,37.92281],[-121.55737,37.922408],[-121.557531,37.922122],[-121.561327,37.920801],[-121.565238,37.919669],[-121.565651,37.919327],[-121.566578,37.918127],[-121.566949,37.916501],[-121.566979,37.91626],[-121.566844,37.915989],[-121.566646,37.915612],[-121.566254,37.915397],[-121.565908,37.915228],[-121.563689,37.912405],[-121.563354,37.911605],[-121.563592,37.910785],[-121.564517,37.909935],[-121.572158,37.905686],[-121.572855,37.90505],[-121.573209,37.904351],[-121.572971,37.902915],[-121.571902,37.902106],[-121.568047,37.89996],[-121.56728,37.899364],[-121.566622,37.898289],[-121.566609,37.89618],[-121.568086,37.892673],[-121.568739,37.892072],[-121.569891,37.891614],[-121.569957,37.89142],[-121.570864,37.891198],[-121.572896,37.890512],[-121.574965,37.889886],[-121.575705,37.889491],[-121.57615,37.888994],[-121.576401,37.88844],[-121.576613,37.887561],[-121.576597,37.886953],[-121.576478,37.886798],[-121.576472,37.886601],[-121.576343,37.886172],[-121.575942,37.885288],[-121.575719,37.885095],[-121.575487,37.88466],[-121.57477,37.883815],[-121.574697,37.883566],[-121.574706,37.883298],[-121.575108,37.882368],[-121.57552,37.881719],[-121.576877,37.879595],[-121.579324,37.874629],[-121.579561,37.87401],[-121.579983,37.872334],[-121.58028,37.8703],[-121.579618,37.869338],[-121.57629,37.867438],[-121.573874,37.865482],[-121.573852,37.865055],[-121.574255,37.864477],[-121.576704,37.863247],[-121.58012,37.861609],[-121.580371,37.861322],[-121.580401,37.860697],[-121.580281,37.86046],[-121.58,37.860286],[-121.579698,37.859905],[-121.579399,37.858335],[-121.57904,37.857815],[-121.578591,37.85752],[-121.574582,37.857284],[-121.570763,37.85685],[-121.569198,37.856658],[-121.568024,37.856762],[-121.567148,37.857236],[-121.566924,37.857437],[-121.56655,37.857496],[-121.566236,37.857402],[-121.56604,37.857244],[-121.562513,37.852596],[-121.56231,37.852223],[-121.562148,37.85213],[-121.561796,37.852158],[-121.561567,37.852272],[-121.561416,37.85234],[-121.561667,37.853014],[-121.561317,37.853327],[-121.561195,37.853435],[-121.561073,37.853639],[-121.561087,37.854069],[-121.561302,37.854562],[-121.561589,37.854874],[-121.562041,37.856016],[-121.562041,37.856459],[-121.562105,37.856737],[-121.562328,37.857043],[-121.562572,37.85727],[-121.564111,37.857212],[-121.564862,37.857551],[-121.565673,37.858049],[-121.567583,37.859945],[-121.569317,37.861821],[-121.574073,37.867289],[-121.577619,37.869354],[-121.578784,37.870013],[-121.579065,37.871903],[-121.577601,37.8751],[-121.575383,37.879698],[-121.573458,37.882274],[-121.573091,37.883202],[-121.573933,37.884424],[-121.574489,37.885435],[-121.575293,37.886905],[-121.575413,37.888406],[-121.574026,37.889351],[-121.572242,37.88961],[-121.568268,37.890825],[-121.567015,37.892176],[-121.56659,37.893786],[-121.565807,37.895059],[-121.565496,37.896412],[-121.565474,37.897715],[-121.566091,37.899409],[-121.568463,37.901551],[-121.571217,37.902988],[-121.572043,37.904077],[-121.571578,37.904817],[-121.570164,37.905518],[-121.562906,37.909059],[-121.562105,37.909805],[-121.561795,37.911146],[-121.561893,37.912526],[-121.561896,37.912796],[-121.562093,37.913124],[-121.562478,37.913354],[-121.562623,37.913625],[-121.562925,37.913871],[-121.563202,37.914011],[-121.563954,37.915484],[-121.564884,37.917384],[-121.563847,37.91856],[-121.560157,37.919141],[-121.555834,37.919955],[-121.554567,37.920761],[-121.554132,37.921402],[-121.554194,37.921911],[-121.554435,37.922863],[-121.556957,37.924775],[-121.558116,37.927244],[-121.557095,37.929287],[-121.555923,37.930212],[-121.555866,37.931595],[-121.557189,37.933161],[-121.560061,37.935126],[-121.56076,37.936408],[-121.560874,37.937601],[-121.56021,37.939155],[-121.559813,37.939304],[-121.556151,37.93924],[-121.555621,37.939583],[-121.555375,37.940045],[-121.555262,37.940448],[-121.555621,37.940985],[-121.558293,37.94095],[-121.559601,37.941443],[-121.559666,37.942135],[-121.557562,37.944557],[-121.557239,37.945406],[-121.556878,37.946212],[-121.557069,37.946873],[-121.562766,37.954717],[-121.563949,37.960079],[-121.564647,37.960866],[-121.571473,37.964716],[-121.572336,37.9667],[-121.572527,37.967801],[-121.572287,37.968904],[-121.572032,37.970097],[-121.572199,37.970946],[-121.573832,37.974214],[-121.573902,37.975184],[-121.57359,37.975777],[-121.571499,37.97786],[-121.571145,37.978539],[-121.572032,37.980317],[-121.573702,37.981112],[-121.579488,37.981955],[-121.580278,37.982714],[-121.579543,37.986291],[-121.579077,37.987665],[-121.576455,37.989061],[-121.575645,37.989465],[-121.575078,37.989943],[-121.574717,37.990481],[-121.574575,37.991232],[-121.574588,37.992817],[-121.574343,37.994188],[-121.574144,37.995461],[-121.573006,37.996495],[-121.572024,37.997223],[-121.572263,37.998165],[-121.572741,37.999419],[-121.573218,38.000695],[-121.573602,38.002353],[-121.573629,38.003754],[-121.573655,38.004507],[-121.573762,38.005574],[-121.573973,38.006662],[-121.574008,38.007859],[-121.574079,38.008832],[-121.574409,38.01003],[-121.574957,38.011184],[-121.575433,38.011699],[-121.576034,38.01188],[-121.577366,38.01153],[-121.578189,38.011138],[-121.579312,38.010354],[-121.579463,38.010529],[-121.580283,38.015872],[-121.579715,38.017674],[-121.579884,38.019141],[-121.579794,38.02021],[-121.579941,38.020717],[-121.580306,38.021118],[-121.580744,38.021442],[-121.581012,38.022516],[-121.580912,38.022895],[-121.580284,38.023713],[-121.579591,38.025473],[-121.57919,38.026067],[-121.579022,38.026581],[-121.578989,38.028373],[-121.579181,38.028828],[-121.579315,38.029382],[-121.579228,38.029977],[-121.579851,38.030594],[-121.579865,38.03097],[-121.579756,38.031259],[-121.578568,38.031773],[-121.577988,38.032275],[-121.577438,38.032772],[-121.577227,38.033611],[-121.576979,38.034314],[-121.577066,38.035033],[-121.577714,38.036829],[-121.579386,38.037873],[-121.579618,38.038227],[-121.579878,38.039326],[-121.579621,38.04065],[-121.578934,38.041746],[-121.57746,38.042265],[-121.577017,38.04267],[-121.576702,38.043065],[-121.576401,38.043527],[-121.576444,38.044226],[-121.576773,38.044609],[-121.578018,38.044868],[-121.579066,38.045167],[-121.579507,38.045567],[-121.579808,38.046187],[-121.579997,38.048742],[-121.579752,38.050163],[-121.579444,38.051592],[-121.580591,38.057036],[-121.580602,38.058507],[-121.580463,38.060041],[-121.579852,38.060473],[-121.579226,38.060765],[-121.578413,38.061286],[-121.577566,38.062108],[-121.576832,38.062976],[-121.57667,38.063954],[-121.576739,38.064912],[-121.5766,38.065789],[-121.576612,38.066611],[-121.577099,38.067972],[-121.57711,38.068536],[-121.576664,38.0691],[-121.576238,38.069396],[-121.575451,38.069706],[-121.57418,38.069904],[-121.573226,38.070114],[-121.57256,38.070399],[-121.572472,38.070762],[-121.572652,38.071131],[-121.57299,38.071598],[-121.573258,38.071947],[-121.573593,38.072165],[-121.574125,38.072487],[-121.574505,38.072692],[-121.574889,38.07281],[-121.575564,38.072718],[-121.576559,38.072566],[-121.577994,38.072359],[-121.579706,38.071984],[-121.580099,38.071904],[-121.580685,38.071628],[-121.581178,38.071252],[-121.581764,38.070468],[-121.582256,38.069139],[-121.582718,38.066741],[-121.582806,38.065015],[-121.583037,38.064176],[-121.583296,38.06387],[-121.58352,38.063544],[-121.583586,38.063474],[-121.583597,38.06343],[-121.58358,38.063388],[-121.583499,38.06326],[-121.583401,38.063106],[-121.583336,38.062965],[-121.583263,38.062894],[-121.583192,38.062819],[-121.58304,38.062748],[-121.583013,38.062711],[-121.583019,38.062658],[-121.583076,38.062517],[-121.583106,38.062397],[-121.583129,38.062288],[-121.583192,38.062133],[-121.583388,38.061848],[-121.583571,38.061528],[-121.583869,38.060988],[-121.583992,38.060748],[-121.584058,38.060351],[-121.584124,38.060012],[-121.584168,38.059749],[-121.584238,38.059539],[-121.58419,38.059342],[-121.584241,38.059147],[-121.584313,38.057597],[-121.583308,38.053714],[-121.583327,38.053453],[-121.583274,38.052507],[-121.583648,38.048887]]]},"properties":{"geo_scale":"region","geo_id":"bf_freshwater_pathway","geo_name":"B&F Freshwater Pathway","polygon_kind":"scenario_pathway_boundary","polygon_class":"candidate_polygon","status":"candidate","geometry_source":"../../mapping/bf_freshwater_pathway/bf_freshwater_pathway_candidates.geojson","waterway_proxy_source":null,"region_scale_label":"scenario_pathway","parent_region_id":null,"is_approximate":false,"snapshot_class":"presentation_region_geometry"}}]}
