{
  "type": "FeatureCollection",
  "features": [
    {
      "type": "Feature",
      "properties": {
        "region_id": "north_franks_tract",
        "region_name": "North Franks Tract",
        "kind": "reviewed_waterway_region",
        "station_ids": [
          111,
          115,
          116,
          117,
          119,
          120,
          124,
          127,
          129,
          133,
          134,
          265,
          266,
          301,
          307,
          309
        ]
      },
      "geometry": {
        "type": "Polygon",
        "coordinates": [
          [
            [
              -121.676594,
              38.061037
            ],
            [
              -121.67475,
              38.068998
            ],
            [
              -121.676251,
              38.075643
            ],
            [
              -121.677352,
              38.081876
            ],
            [
              -121.676419,
              38.085103
            ],
            [
              -121.676713,
              38.087062
            ],
            [
              -121.675548,
              38.088888
            ],
            [
              -121.670739,
              38.091448
            ],
            [
              -121.665655,
              38.092925
            ],
            [
              -121.660915,
              38.09329
            ],
            [
              -121.659486,
              38.092797
            ],
            [
              -121.654172,
              38.089639
            ],
            [
              -121.651149,
              38.08726
            ],
            [
              -121.649218,
              38.086374
            ],
            [
              -121.647393,
              38.085638
            ],
            [
              -121.647325,
              38.084992
            ],
            [
              -121.647709,
              38.084452
            ],
            [
              -121.649755,
              38.084028
            ],
            [
              -121.65015,
              38.082293
            ],
            [
              -121.649245,
              38.0805
            ],
            [
              -121.648532,
              38.078773
            ],
            [
              -121.64847,
              38.072784
            ],
            [
              -121.649069,
              38.069801
            ],
            [
              -121.648987,
              38.061773
            ],
            [
              -121.648745,
              38.061475
            ],
            [
              -121.64807,
              38.061517
            ],
            [
              -121.647714,
              38.061922
            ],
            [
              -121.64775,
              38.065853
            ],
            [
              -121.647661,
              38.070647
            ],
            [
              -121.647291,
              38.072115
            ],
            [
              -121.646873,
              38.073366
            ],
            [
              -121.646547,
              38.078765
            ],
            [
              -121.646387,
              38.082063
            ],
            [
              -121.646114,
              38.083445
            ],
            [
              -121.64578,
              38.084082
            ],
            [
              -121.644021,
              38.084622
            ],
            [
              -121.639886,
              38.085037
            ],
            [
              -121.638001,
              38.085063
            ],
            [
              -121.636104,
              38.085276
            ],
            [
              -121.630584,
              38.086634
            ],
            [
              -121.628188,
              38.087072
            ],
            [
              -121.626233,
              38.088026
            ],
            [
              -121.624622,
              38.089407
            ],
            [
              -121.623617,
              38.090411
            ],
            [
              -121.622947,
              38.092287
            ],
            [
              -121.623376,
              38.094478
            ],
            [
              -121.62367,
              38.096733
            ],
            [
              -121.622843,
              38.097655
            ],
            [
              -121.621692,
              38.098392
            ],
            [
              -121.618051,
              38.099151
            ],
            [
              -121.614062,
              38.099867
            ],
            [
              -121.606798,
              38.100934
            ],
            [
              -121.605783,
              38.100858
            ],
            [
              -121.604758,
              38.100711
            ],
            [
              -121.602014,
              38.099734
            ],
            [
              -121.594619,
              38.097347
            ],
            [
              -121.593375,
              38.096565
            ],
            [
              -121.592039,
              38.094953
            ],
            [
              -121.590953,
              38.093846
            ],
            [
              -121.590276,
              38.09372
            ],
            [
              -121.58618,
              38.094273
            ],
            [
              -121.58423,
              38.094166
            ],
            [
              -121.581759,
              38.093361
            ],
            [
              -121.578998,
              38.092389
            ],
            [
              -121.578698,
              38.091389
            ],
            [
              -121.578496,
              38.088721
            ],
            [
              -121.578276,
              38.084406
            ],
            [
              -121.578076,
              38.080985
            ],
            [
              -121.577437,
              38.07901
            ],
            [
              -121.576628,
              38.077378
            ],
            [
              -121.573027,
              38.073812
            ],
            [
              -121.572096,
              38.072295
            ],
            [
              -121.571416,
              38.071275
            ],
            [
              -121.570833,
              38.070549
            ],
            [
              -121.564352,
              38.068531
            ],
            [
              -121.562946,
              38.067403
            ],
            [
              -121.562027,
              38.06602
            ],
            [
              -121.561566,
              38.064013
            ],
            [
              -121.561269,
              38.061928
            ],
            [
              -121.560485,
              38.060395
            ],
            [
              -121.558587,
              38.058368
            ],
            [
              -121.55503,
              38.056767
            ],
            [
              -121.553081,
              38.056407
            ],
            [
              -121.552081,
              38.056471
            ],
            [
              -121.549107,
              38.056046
            ],
            [
              -121.548296,
              38.056131
            ],
            [
              -121.54735,
              38.05662
            ],
            [
              -121.538352,
              38.055576
            ],
            [
              -121.537001,
              38.05498
            ],
            [
              -121.536109,
              38.054597
            ],
            [
              -121.534811,
              38.054405
            ],
            [
              -121.533324,
              38.054533
            ],
            [
              -121.531757,
              38.055512
            ],
            [
              -121.531108,
              38.056044
            ],
            [
              -121.530378,
              38.056896
            ],
            [
              -121.529313,
              38.060068
            ],
            [
              -121.52914,
              38.062806
            ],
            [
              -121.529897,
              38.065424
            ],
            [
              -121.530789,
              38.067531
            ],
            [
              -121.532225,
              38.068534
            ],
            [
              -121.534117,
              38.0693
            ],
            [
              -121.535253,
              38.069385
            ],
            [
              -121.536415,
              38.069236
            ],
            [
              -121.53801,
              38.068661
            ],
            [
              -121.541659,
              38.066363
            ],
            [
              -121.547086,
              38.06323
            ],
            [
              -121.553847,
              38.06074
            ],
            [
              -121.555037,
              38.060932
            ],
            [
              -121.555064,
              38.061549
            ],
            [
              -121.553913,
              38.063394
            ],
            [
              -121.552376,
              38.064499
            ],
            [
              -121.551806,
              38.065741
            ],
            [
              -121.551806,
              38.067208
            ],
            [
              -121.552442,
              38.069519
            ],
            [
              -121.553165,
              38.070434
            ],
            [
              -121.553932,
              38.071107
            ],
            [
              -121.554765,
              38.071917
            ],
            [
              -121.555225,
              38.072694
            ],
            [
              -121.557926,
              38.073965
            ],
            [
              -121.559898,
              38.074672
            ],
            [
              -121.561994,
              38.07603
            ],
            [
              -121.565608,
              38.077936
            ],
            [
              -121.569113,
              38.080294
            ],
            [
              -121.569512,
              38.082385
            ],
            [
              -121.569539,
              38.08456
            ],
            [
              -121.569436,
              38.085978
            ],
            [
              -121.569526,
              38.08653
            ],
            [
              -121.569294,
              38.088354
            ],
            [
              -121.569294,
              38.089949
            ],
            [
              -121.569848,
              38.091116
            ],
            [
              -121.570375,
              38.091848
            ],
            [
              -121.571205,
              38.092274
            ],
            [
              -121.571506,
              38.092819
            ],
            [
              -121.571136,
              38.09342
            ],
            [
              -121.570902,
              38.094099
            ],
            [
              -121.570653,
              38.094928
            ],
            [
              -121.570435,
              38.095869
            ],
            [
              -121.570255,
              38.096436
            ],
            [
              -121.570217,
              38.097063
            ],
            [
              -121.570141,
              38.097489
            ],
            [
              -121.570225,
              38.097992
            ],
            [
              -121.571144,
              38.098665
            ],
            [
              -121.572316,
              38.099825
            ],
            [
              -121.575136,
              38.101134
            ],
            [
              -121.57973,
              38.102181
            ],
            [
              -121.584196,
              38.102843
            ],
            [
              -121.584655,
              38.102746
            ],
            [
              -121.584983,
              38.10293
            ],
            [
              -121.587675,
              38.103206
            ],
            [
              -121.591505,
              38.103335
            ],
            [
              -121.592052,
              38.10354
            ],
            [
              -121.592398,
              38.103952
            ],
            [
              -121.592814,
              38.10431
            ],
            [
              -121.593971,
              38.105118
            ],
            [
              -121.595167,
              38.10566
            ],
            [
              -121.596454,
              38.106079
            ],
            [
              -121.598174,
              38.107144
            ],
            [
              -121.599695,
              38.107717
            ],
            [
              -121.601333,
              38.108167
            ],
            [
              -121.604605,
              38.10894
            ],
            [
              -121.610044,
              38.10828
            ],
            [
              -121.611664,
              38.107979
            ],
            [
              -121.61299,
              38.107887
            ],
            [
              -121.613497,
              38.107345
            ],
            [
              -121.61442,
              38.107027
            ],
            [
              -121.614797,
              38.107079
            ],
            [
              -121.615263,
              38.106319
            ],
            [
              -121.615772,
              38.105603
            ],
            [
              -121.617191,
              38.10495
            ],
            [
              -121.619681,
              38.104276
            ],
            [
              -121.62292,
              38.10396
            ],
            [
              -121.626017,
              38.10327
            ],
            [
              -121.626535,
              38.103328
            ],
            [
              -121.627499,
              38.103075
            ],
            [
              -121.630221,
              38.101732
            ],
            [
              -121.630859,
              38.100596
            ],
            [
              -121.632068,
              38.099751
            ],
            [
              -121.632925,
              38.098635
            ],
            [
              -121.633862,
              38.096401
            ],
            [
              -121.634229,
              38.092747
            ],
            [
              -121.635527,
              38.090726
            ],
            [
              -121.636497,
              38.089963
            ],
            [
              -121.636999,
              38.089846
            ],
            [
              -121.642803,
              38.091096
            ],
            [
              -121.64373,
              38.091478
            ],
            [
              -121.644629,
              38.091938
            ],
            [
              -121.645741,
              38.093577
            ],
            [
              -121.646152,
              38.094016
            ],
            [
              -121.647193,
              38.094049
            ],
            [
              -121.64812,
              38.09479
            ],
            [
              -121.649304,
              38.095015
            ],
            [
              -121.650574,
              38.095767
            ],
            [
              -121.654364,
              38.097196
            ],
            [
              -121.661099,
              38.098392
            ],
            [
              -121.665954,
              38.09832
            ],
            [
              -121.66925,
              38.09758
            ],
            [
              -121.673037,
              38.096427
            ],
            [
              -121.677059,
              38.094676
            ],
            [
              -121.679619,
              38.092854
            ],
            [
              -121.681426,
              38.090988
            ],
            [
              -121.683368,
              38.087521
            ],
            [
              -121.683915,
              38.087326
            ],
            [
              -121.684747,
              38.091662
            ],
            [
              -121.685032,
              38.099441
            ],
            [
              -121.683902,
              38.104837
            ],
            [
              -121.68323,
              38.107194
            ],
            [
              -121.682419,
              38.109319
            ],
            [
              -121.682108,
              38.111391
            ],
            [
              -121.682067,
              38.115077
            ],
            [
              -121.682261,
              38.115679
            ],
            [
              -121.682815,
              38.116268
            ],
            [
              -121.683326,
              38.116314
            ],
            [
              -121.683821,
              38.116226
            ],
            [
              -121.683983,
              38.116072
            ],
            [
              -121.684744,
              38.116126
            ],
            [
              -121.685043,
              38.115964
            ],
            [
              -121.687393,
              38.11544
            ],
            [
              -121.689036,
              38.114603
            ],
            [
              -121.69055,
              38.113569
            ],
            [
              -121.691796,
              38.112419
            ],
            [
              -121.692824,
              38.111258
            ],
            [
              -121.693685,
              38.109975
            ],
            [
              -121.694455,
              38.10853
            ],
            [
              -121.695213,
              38.10663
            ],
            [
              -121.695836,
              38.105745
            ],
            [
              -121.696953,
              38.105685
            ],
            [
              -121.698019,
              38.105836
            ],
            [
              -121.69956,
              38.106473
            ],
            [
              -121.70019,
              38.106352
            ],
            [
              -121.700601,
              38.106079
            ],
            [
              -121.700935,
              38.105664
            ],
            [
              -121.700999,
              38.105301
            ],
            [
              -121.70087,
              38.105119
            ],
            [
              -121.700433,
              38.104977
            ],
            [
              -121.698875,
              38.104302
            ],
            [
              -121.697463,
              38.10406
            ],
            [
              -121.696439,
              38.104098
            ],
            [
              -121.695914,
              38.104168
            ],
            [
              -121.695412,
              38.104305
            ],
            [
              -121.694517,
              38.104843
            ],
            [
              -121.69384,
              38.105435
            ],
            [
              -121.691913,
              38.108993
            ],
            [
              -121.689265,
              38.112221
            ],
            [
              -121.686964,
              38.113655
            ],
            [
              -121.685667,
              38.114153
            ],
            [
              -121.684275,
              38.114378
            ],
            [
              -121.683839,
              38.113809
            ],
            [
              -121.684425,
              38.109437
            ],
            [
              -121.686052,
              38.104191
            ],
            [
              -121.686753,
              38.101391
            ],
            [
              -121.68695,
              38.100192
            ],
            [
              -121.68697,
              38.099043
            ],
            [
              -121.686793,
              38.09698
            ],
            [
              -121.686854,
              38.092902
            ],
            [
              -121.686647,
              38.086748
            ],
            [
              -121.685519,
              38.082417
            ],
            [
              -121.684338,
              38.079609
            ],
            [
              -121.683993,
              38.078141
            ],
            [
              -121.683307,
              38.075885
            ],
            [
              -121.683668,
              38.07472
            ],
            [
              -121.683717,
              38.073449
            ],
            [
              -121.683331,
              38.071304
            ],
            [
              -121.682945,
              38.070602
            ],
            [
              -121.683018,
              38.069672
            ],
            [
              -121.682415,
              38.067236
            ],
            [
              -121.683285,
              38.064762
            ],
            [
              -121.685204,
              38.061991
            ],
            [
              -121.693382,
              38.055713
            ],
            [
              -121.693262,
              38.054441
            ],
            [
              -121.692045,
              38.05341
            ],
            [
              -121.690984,
              38.052119
            ],
            [
              -121.689794,
              38.051763
            ],
            [
              -121.688815,
              38.052176
            ],
            [
              -121.685189,
              38.054279
            ],
            [
              -121.682576,
              38.055652
            ],
            [
              -121.679959,
              38.056755
            ],
            [
              -121.678441,
              38.058102
            ],
            [
              -121.677235,
              38.059412
            ],
            [
              -121.676594,
              38.061037
            ]
          ]
        ]
      }
    }
  ]
}
